{"KR/대구광역시/달서구": {"lang": "ko", "lname": "Dalseo-gu", "id": "data/KR/대구광역시/달서구", "zip": "42[678]|704", "key": "달서구"}, "KR/전라북도": {"lang": "ko", "zipex": "56445", "isoid": "45", "zip": "5[4-6]\\d{2}|5[6-9]\\d[\\-]", "sub_mores": "false~false~false~false~false~false~false~false~false~false~false~true~false~false", "sub_zips": "564|5(?:79|85)~54[01]|573~543|576~55[78]|590~555|568~563|579~560|595~553|565~54[56]|570~559|566~556|597[\\-]8~5(?:4[89]|5[01])|56[01]~56[12]|580~554|567", "lname": "Jeollabuk-do", "sub_lnames": "Gochang-gun~Gunsan-si~Gimje-si~Namwon-si~Muju-gun~Buan-gun~Sunchang-gun~Wanju-gun~Iksan-si~Imsil-gun~Jangsu-gun~Jeonju-si~Jeongeup-si~Jinan-gun", "sub_keys": "고창군~군산시~김제시~남원시~무주군~부안군~순창군~완주군~익산시~임실군~장수군~전주시~정읍시~진안군", "key": "전라북도", "id": "data/KR/전라북도", "name": "전북"}, "KR/경상북도/예천군": {"lang": "ko", "lname": "Yecheon-gun", "id": "data/KR/경상북도/예천군", "zip": "368|757", "key": "예천군"}, "KR/서울특별시/강동구": {"lang": "ko", "lname": "Gangdong-gu", "id": "data/KR/서울특별시/강동구", "zip": "05[2-4]|134", "key": "강동구"}, "KR/울산광역시": {"lang": "ko", "zipex": "44782", "isoid": "31", "zip": "4[45]\\d{2}|68[0-39][\\-]", "sub_zips": "44[67]|680~44[01]|682~442|683~4(?:49|50)|689~44[45]|681", "lname": "Ulsan", "sub_lnames": "Nam-gu~Dong-gu~Buk-gu~Ulju-gun~Jung-gu", "sub_keys": "남구~동구~북구~울주군~중구", "key": "울산광역시", "id": "data/KR/울산광역시", "name": "울산"}, "KR/경상남도/진주시": {"lang": "ko", "lname": "Jinju-si", "id": "data/KR/경상남도/진주시", "zip": "52[6-8]|660", "key": "진주시"}, "KR/부산광역시/중구": {"lang": "ko", "lname": "Jung-gu", "id": "data/KR/부산광역시/중구", "zip": "489|600", "key": "중구"}, "KR/경상북도/칠곡군": {"lang": "ko", "lname": "Chilgok-gun", "id": "data/KR/경상북도/칠곡군", "zip": "39[89]|718", "key": "칠곡군"}, "KR/인천광역시/강화군": {"lang": "ko", "lname": "Ganghwa-gun", "id": "data/KR/인천광역시/강화군", "zip": "230|417", "key": "강화군"}, "KR/서울특별시/광진구": {"lang": "ko", "lname": "Gwangjin-gu", "id": "data/KR/서울특별시/광진구", "zip": "0(?:49|5[01])|143", "key": "광진구"}, "KR/경기도/안산시/상록구": {"lang": "ko", "lname": "Sangnok-gu", "id": "data/KR/경기도/안산시/상록구", "zip": "15[2-6]|426", "key": "상록구"}, "KR/경기도/수원시/권선구": {"lang": "ko", "lname": "Gwonseon-gu", "id": "data/KR/경기도/수원시/권선구", "zip": "16[3-6]|441", "key": "권선구"}, "KR/전라남도/고흥군": {"lang": "ko", "lname": "Goheung-gun", "id": "data/KR/전라남도/고흥군", "zip": "595|548", "key": "고흥군"}, "KR/경기도/군포시": {"lang": "ko", "lname": "Gunpo-si", "id": "data/KR/경기도/군포시", "zip": "158|435", "key": "군포시"}, "KR/경상남도/통영시": {"lang": "ko", "lname": "Tongyeong-si", "id": "data/KR/경상남도/통영시", "zip": "53[01]|650", "key": "통영시"}, "KR/충청북도": {"lang": "ko", "zipex": "28006", "isoid": "43", "zip": "2[789]\\d{2}|3[6-9]\\d[\\-]", "sub_mores": "false~false~false~false~false~false~false~false~false~false~true~false", "sub_zips": "280|367~270|395~289|376~291|370~290|373[\\-]8~27[67]|369~27[12]|390~279|368~278|365~28[13-5]|363~36[0-3]~27[3-5]|380", "lname": "Chungcheongbuk-do", "sub_lnames": "Goesan-gun~Danyang-gun~Boeun-gun~Yeongdong-gun~Okcheon-gun~Eumseong-gun~Jecheon-si~Jeungpyeong-gun~Jincheon-gun~Cheongwon-gun~Cheongju-si~Chungju-si", "sub_keys": "괴산군~단양군~보은군~영동군~옥천군~음성군~제천시~증평군~진천군~청원군~청주시~충주시", "key": "충청북도", "id": "data/KR/충청북도", "name": "충북"}, "KR/울산광역시/울주군": {"lang": "ko", "lname": "Ulju-gun", "id": "data/KR/울산광역시/울주군", "zip": "4(?:49|50)|689", "key": "울주군"}, "KR/서울특별시/양천구": {"lang": "ko", "lname": "Yangcheon-gu", "id": "data/KR/서울특별시/양천구", "zip": "0(?:78|8[01])|158", "key": "양천구"}, "KR/경상북도/청송군": {"lang": "ko", "lname": "Cheongsong-gun", "id": "data/KR/경상북도/청송군", "zip": "374|763", "key": "청송군"}, "KR/광주광역시/동구": {"lang": "ko", "lname": "Dong-gu", "id": "data/KR/광주광역시/동구", "zip": "61[45]|501", "key": "동구"}, "KR/경기도/구리시": {"lang": "ko", "lname": "Guri-si", "id": "data/KR/경기도/구리시", "zip": "119|471", "key": "구리시"}, "KR/강원도/양양군": {"lang": "ko", "lname": "Yangyang-gun", "id": "data/KR/강원도/양양군", "zip": "250|215", "key": "양양군"}, "KR/전라북도/장수군": {"lang": "ko", "lname": "Jangsu-gun", "id": "data/KR/전라북도/장수군", "zip": "556|597[\\-]8", "key": "장수군"}, "KR/광주광역시/북구": {"lang": "ko", "lname": "Buk-gu", "id": "data/KR/광주광역시/북구", "zip": "61[0-2]|500", "key": "북구"}, "KR/경기도/포천시": {"lang": "ko", "lname": "Pocheon-si", "id": "data/KR/경기도/포천시", "zip": "111|48[0267]", "key": "포천시"}, "KR/인천광역시/동구": {"lang": "ko", "lname": "Dong-gu", "id": "data/KR/인천광역시/동구", "zip": "225|401", "key": "동구"}, "KR/제주특별자치도/제주시": {"lang": "ko", "lname": "Jeju-si", "id": "data/KR/제주특별자치도/제주시", "zip": "63[0-3]|69[05]", "key": "제주시"}, "KR/대전광역시": {"lang": "ko", "zipex": "34316", "isoid": "30", "zip": "3[45]\\d{2}|30[0-25-6][\\-]", "sub_zips": "34[34]|306~34[5-7]|300~35[2-4]|302~34[0-2]|305~3(?:4[89]|50)|301", "lname": "Daejeon", "sub_lnames": "Daedeok-gu~Dong-gu~Seo-gu~Yuseong-gu~Jung-gu", "sub_keys": "대덕구~동구~서구~유성구~중구", "key": "대전광역시", "id": "data/KR/대전광역시", "name": "대전"}, "KR/강원도/속초시": {"lang": "ko", "lname": "Sokcho-si", "id": "data/KR/강원도/속초시", "zip": "24[89]|21[79]", "key": "속초시"}, "KR/충청북도/음성군": {"lang": "ko", "lname": "Eumseong-gun", "id": "data/KR/충청북도/음성군", "zip": "27[67]|369", "key": "음성군"}, "KR/경상북도/군위군": {"lang": "ko", "lname": "Gunwi-gun", "id": "data/KR/경상북도/군위군", "zip": "390|716", "key": "군위군"}, "KR/경상남도/하동군": {"lang": "ko", "lname": "Hadong-gun", "id": "data/KR/경상남도/하동군", "zip": "523|667", "key": "하동군"}, "KR/서울특별시/금천구": {"lang": "ko", "lname": "Geumcheon-gu", "id": "data/KR/서울특별시/금천구", "zip": "08[56]|153", "key": "금천구"}, "KR/경상남도/김해시": {"lang": "ko", "lname": "Gimhae-si", "id": "data/KR/경상남도/김해시", "zip": "5(?:0[89]|10)|621", "key": "김해시"}, "KR/전라북도/김제시": {"lang": "ko", "lname": "Gimje-si", "id": "data/KR/전라북도/김제시", "zip": "543|576", "key": "김제시"}, "KR/충청남도/예산군": {"lang": "ko", "lname": "Yesan-gun", "id": "data/KR/충청남도/예산군", "zip": "324|340", "key": "예산군"}, "KR/전라북도/전주시": {"lang": "ko", "sub_lnames": "Deokjin-gu~Wansan-gu", "sub_zips": "5(?:4[89]|50)|561~5(?:4[89]|5[01])560", "zip": "5(?:4[89]|5[01])|56[01]", "lname": "Jeonju-si", "sub_keys": "덕진구~완산구", "key": "전주시", "id": "data/KR/전라북도/전주시"}, "KR/전라남도/함평군": {"lang": "ko", "lname": "Hampyeong-gun", "id": "data/KR/전라남도/함평군", "zip": "571|525[\\-]8", "key": "함평군"}, "KR/경상남도/함양군": {"lang": "ko", "lname": "Hamyang-gun", "id": "data/KR/경상남도/함양군", "zip": "500|676", "key": "함양군"}, "KR/인천광역시/남구": {"lang": "ko", "lname": "Nam-gu", "id": "data/KR/인천광역시/남구", "zip": "22[12]|402", "key": "남구"}, "KR/경상북도/포항시/북구": {"lang": "ko", "lname": "Buk-gu", "id": "data/KR/경상북도/포항시/북구", "zip": "37[5-79]|791", "key": "북구"}, "KR/경기도/안산시/단원구": {"lang": "ko", "lname": "Danwon-gu", "id": "data/KR/경기도/안산시/단원구", "zip": "15[2-6]|425", "key": "단원구"}, "KR/경상남도/창원시/마산합포구": {"lang": "ko", "lname": "Masanhappo-gu", "id": "data/KR/경상남도/창원시/마산합포구", "zip": "51[237]|631", "key": "마산합포구"}, "KR/경기도/파주시": {"lang": "ko", "lname": "Paju-si", "id": "data/KR/경기도/파주시", "zip": "10[89]|4(?:1[023]|82)", "key": "파주시"}, "KR/경기도": {"lang": "ko", "zipex": "12410", "isoid": "41", "zip": "1[0-8]\\d{2}|4(?:1[0-6]|[2-8]\\d)[\\-]", "sub_mores": "false~true~false~false~false~false~false~false~false~false~true~true~true~false~true~false~true~false~false~false~false~false~true~false~false~false~false~false~false~false~false", "sub_zips": "124|477~10[2-5]|41[012]~138|427~14[23]|423~12[78]|464~119|471~158|435~10[01]|415~12[0-3]|4(?:7[12]|80)~113|48[236]~14[4-7]|42[012]~13[1-6]|46[123]~16[2-7]|44[0123]~1(?:49|5[01])|429~15[2-6]|42[56]~17[56]|456~1(?:39|4[01])|43[01]~11[45]|4(?:12|8[027])~125|476~126|469~110|48[0267]~181|447~1(?:6[89]|7[01])|44[689]~16[01]|437~11[6-8]|480~17[34]|467~10[89]|4(?:1[023]|82)~1(?:7[7-9]|80)|45[019]~111|48[0267]~1(?:29|30)|465~18[2-6]|445", "lname": "Gyeonggi-do", "sub_lnames": "Gapyeong-gun~Goyang-si~Gwacheon-si~Gwangmyeong-si~Gwangju-si~Guri-si~Gunpo-si~Gimpo-si~Namyangju-si~Dongducheon-si~Bucheon-si~Seongnam-si~Suwon-si~Siheung-si~Ansan-si~Anseong-si~Anyang-si~Yangju-si~Yangpyeong-gun~Yeoju-si~Yeoncheon-gun~Osan-si~Yongin-si~Uiwang-si~Uijeongbu-si~Icheon-si~Paju-si~Pyeongtaek-si~Pocheon-si~Hanam-si~Hwaseong-si", "sub_keys": "가평군~고양시~과천시~광명시~광주시~구리시~군포시~김포시~남양주시~동두천시~부천시~성남시~수원시~시흥시~안산시~안성시~안양시~양주시~양평군~여주시~연천군~오산시~용인시~의왕시~의정부시~이천시~파주시~평택시~포천시~하남시~화성시", "key": "경기도", "id": "data/KR/경기도", "name": "경기"}, "KR/경기도/고양시/일산서구": {"lang": "ko", "lname": "Ilsanseo-gu", "id": "data/KR/경기도/고양시/일산서구", "zip": "10[2-4]|411", "key": "일산서구"}, "KR/충청남도/공주시": {"lang": "ko", "lname": "Gongju-si", "id": "data/KR/충청남도/공주시", "zip": "32[56]|314", "key": "공주시"}, "KR/강원도/원주시": {"lang": "ko", "lname": "Wonju-si", "id": "data/KR/강원도/원주시", "zip": "26[3-5]|220", "key": "원주시"}, "KR/광주광역시": {"lang": "ko", "zipex": "62394", "isoid": "29", "zip": "6[12]\\d{2}|50[0-36][\\-]", "sub_zips": "62[2-4]|506~61[67]|503~61[45]|501~61[0-2]|500~6(?:19|20)|502", "lname": "Gwangju", "sub_lnames": "Gwangsan-gu~Nam-gu~Dong-gu~Buk-gu~Seo-gu", "sub_keys": "광산구~남구~동구~북구~서구", "key": "광주광역시", "id": "data/KR/광주광역시", "name": "광주"}, "KR/충청북도/보은군": {"lang": "ko", "lname": "Boeun-gun", "id": "data/KR/충청북도/보은군", "zip": "289|376", "key": "보은군"}, "KR/충청남도/논산시": {"lang": "ko", "lname": "Nonsan-si", "id": "data/KR/충청남도/논산시", "zip": "3(?:29|30)|320", "key": "논산시"}, "KR/인천광역시/중구": {"lang": "ko", "lname": "Jung-gu", "id": "data/KR/인천광역시/중구", "zip": "223|400", "key": "중구"}, "KR/강원도/철원군": {"lang": "ko", "lname": "Cheorwon-gun", "id": "data/KR/강원도/철원군", "zip": "240|209|269|487[\\-]839", "key": "철원군"}, "KR/경상남도/산청군": {"lang": "ko", "lname": "Sancheong-gun", "id": "data/KR/경상남도/산청군", "zip": "522|666", "key": "산청군"}, "KR/충청북도/충주시": {"lang": "ko", "lname": "Chungju-si", "id": "data/KR/충청북도/충주시", "zip": "27[3-5]|380", "key": "충주시"}, "KR/인천광역시/연수구": {"lang": "ko", "lname": "Yeonsu-gu", "id": "data/KR/인천광역시/연수구", "zip": "2(?:19|20)|406", "key": "연수구"}, "KR/충청남도/태안군": {"lang": "ko", "lname": "Taean-gun", "id": "data/KR/충청남도/태안군", "zip": "321|357", "key": "태안군"}, "KR/경상북도/영천시": {"lang": "ko", "lname": "Yeongcheon-si", "id": "data/KR/경상북도/영천시", "zip": "38[89]|770", "key": "영천시"}, "KR/경기도/과천시": {"lang": "ko", "lname": "Gwacheon-si", "id": "data/KR/경기도/과천시", "zip": "138|427", "key": "과천시"}, "KR/경기도/고양시/일산동구": {"lang": "ko", "lname": "Ilsandong-gu", "id": "data/KR/경기도/고양시/일산동구", "zip": "10[2-4]|410", "key": "일산동구"}, "KR/경기도/부천시/소사구": {"lang": "ko", "lname": "Sosa-gu", "id": "data/KR/경기도/부천시/소사구", "zip": "14[67]|422", "key": "소사구"}, "KR/전라남도/장성군": {"lang": "ko", "lname": "Jangseong-gun", "id": "data/KR/전라남도/장성군", "zip": "572|515", "key": "장성군"}, "KR/경기도/이천시": {"lang": "ko", "lname": "Icheon-si", "id": "data/KR/경기도/이천시", "zip": "17[34]|467", "key": "이천시"}, "KR/부산광역시/부산진구": {"lang": "ko", "lname": "Busanjin-gu", "id": "data/KR/부산광역시/부산진구", "zip": "47[123]|614", "key": "부산진구"}, "KR/서울특별시/성북구": {"lang": "ko", "lname": "Seongbuk-gu", "id": "data/KR/서울특별시/성북구", "zip": "02[78]|136", "key": "성북구"}, "KR/전라남도/장흥군": {"lang": "ko", "lname": "Jangheung-gun", "id": "data/KR/전라남도/장흥군", "zip": "593|529", "key": "장흥군"}, "KR/경기도/부천시": {"lang": "ko", "sub_lnames": "Sosa-gu~Ojeong-gu~Wonmi-gu", "sub_zips": "14[67]|422~14[45]|421~14[456]|420", "zip": "14[4-7]|42[012]", "lname": "Bucheon-si", "sub_keys": "소사구~오정구~원미구", "key": "부천시", "id": "data/KR/경기도/부천시"}, "KR/경상남도/고성군": {"lang": "ko", "lname": "Goseong-gun", "id": "data/KR/경상남도/고성군", "zip": "529|638", "key": "고성군"}, "KR/서울특별시/중구": {"lang": "ko", "lname": "Jung-gu", "id": "data/KR/서울특별시/중구", "zip": "04[56]|100", "key": "중구"}, "KR/전라북도/전주시/덕진구": {"lang": "ko", "lname": "Deokjin-gu", "id": "data/KR/전라북도/전주시/덕진구", "zip": "5(?:4[89]|50)|561", "key": "덕진구"}, "KR/서울특별시/중랑구": {"lang": "ko", "lname": "Jungnang-gu", "id": "data/KR/서울특별시/중랑구", "zip": "02[0-2]|131", "key": "중랑구"}, "KR/충청남도/서천군": {"lang": "ko", "lname": "Seocheon-gun", "id": "data/KR/충청남도/서천군", "zip": "336|325", "key": "서천군"}, "KR/경상북도/의성군": {"lang": "ko", "lname": "Uiseong-gun", "id": "data/KR/경상북도/의성군", "zip": "373|769", "key": "의성군"}, "KR/부산광역시/동구": {"lang": "ko", "lname": "Dong-gu", "id": "data/KR/부산광역시/동구", "zip": "48[78]|601", "key": "동구"}, "KR/전라북도/익산시": {"lang": "ko", "lname": "Iksan-si", "id": "data/KR/전라북도/익산시", "zip": "54[56]|570", "key": "익산시"}, "KR/부산광역시/동래구": {"lang": "ko", "lname": "Dongnae-gu", "id": "data/KR/부산광역시/동래구", "zip": "47[789]|607", "key": "동래구"}, "KR/경상북도/포항시/남구": {"lang": "ko", "lname": "Nam-gu", "id": "data/KR/경상북도/포항시/남구", "zip": "37[6-9]|790", "key": "남구"}, "KR/경상남도": {"lang": "ko", "zipex": "53286", "isoid": "48", "zip": "5[0-3]\\d{2}|6[2-7]\\d[\\-]", "sub_mores": "false~false~false~false~false~false~false~false~false~false~false~false~true~false~false~false~false~false", "sub_zips": "53[23]|656~501|670~529|638~5(?:0[89]|10)|621~524|668[\\-]8~504|627~525|664~522|666~50[56]|626~521|636~52[6-8]|660~503|635~51[2-7]|6(?:3[01]|4[125])~53[01]|650~523|667~520|637~500|676~502|678", "lname": "Gyeongsangnam-do", "sub_lnames": "Geoje-si~Geochang-gun~Goseong-gun~Gimhae-si~Namhae-gun~Miryang-si~Sacheon-si~Sancheong-gun~Yangsan-si~Uiryeong-gun~Jinju-si~Changnyeong-gun~Changwon-si~Tongyeong-si~Hadong-gun~Haman-gun~Hamyang-gun~Hapcheon-gun", "sub_keys": "거제시~거창군~고성군~김해시~남해군~밀양시~사천시~산청군~양산시~의령군~진주시~창녕군~창원시~통영시~하동군~함안군~함양군~합천군", "key": "경상남도", "id": "data/KR/경상남도", "name": "경남"}, "KR/서울특별시/강북구": {"lang": "ko", "lname": "Gangbuk-gu", "id": "data/KR/서울특별시/강북구", "zip": "01[0-2]|142", "key": "강북구"}, "KR/충청남도/홍성군": {"lang": "ko", "lname": "Hongseong-gun", "id": "data/KR/충청남도/홍성군", "zip": "322|350", "key": "홍성군"}, "KR/전라남도/광양시": {"lang": "ko", "lname": "Gwangyang-si", "id": "data/KR/전라남도/광양시", "zip": "57[78]|545", "key": "광양시"}, "KR/경기도/안성시": {"lang": "ko", "lname": "Anseong-si", "id": "data/KR/경기도/안성시", "zip": "17[56]|456", "key": "안성시"}, "KR/전라북도/남원시": {"lang": "ko", "lname": "Namwon-si", "id": "data/KR/전라북도/남원시", "zip": "55[78]|590", "key": "남원시"}, "KR/전라북도/군산시": {"lang": "ko", "lname": "Gunsan-si", "id": "data/KR/전라북도/군산시", "zip": "54[01]|573", "key": "군산시"}, "KR/강원도/횡성군": {"lang": "ko", "lname": "Hoengseong-gun", "id": "data/KR/강원도/횡성군", "zip": "252|225", "key": "횡성군"}, "KR/인천광역시/남동구": {"lang": "ko", "lname": "Namdong-gu", "id": "data/KR/인천광역시/남동구", "zip": "21[5-7]|405", "key": "남동구"}, "KR/경기도/용인시/수지구": {"lang": "ko", "lname": "Suji-gu", "id": "data/KR/경기도/용인시/수지구", "zip": "16[89]|448", "key": "수지구"}, "KR/경상남도/창원시": {"lang": "ko", "sub_lnames": "Masanhappo-gu~Masanhoewon-gu~Seongsan-gu~Uichang-gu~Jinhae-gu", "sub_zips": "51[237]|631~51[23]|630~51[457]|642~51[1-4]|641~51[5-7]|645", "zip": "51[2-7]|6(?:3[01]|4[125])", "lname": "Changwon-si", "sub_keys": "마산합포구~마산회원구~성산구~의창구~진해구", "key": "창원시", "id": "data/KR/경상남도/창원시"}, "KR/광주광역시/남구": {"lang": "ko", "lname": "Nam-gu", "id": "data/KR/광주광역시/남구", "zip": "61[67]|503", "key": "남구"}, "KR/전라남도/신안군": {"lang": "ko", "lname": "Sinan-gun", "id": "data/KR/전라남도/신안군", "zip": "588|53[05]", "key": "신안군"}, "KR/부산광역시/사하구": {"lang": "ko", "lname": "Saha-gu", "id": "data/KR/부산광역시/사하구", "zip": "49[345]|604", "key": "사하구"}, "KR/서울특별시/송파구": {"lang": "ko", "lname": "Songpa-gu", "id": "data/KR/서울특별시/송파구", "zip": "05[5-8]|138", "key": "송파구"}, "KR/경기도/성남시": {"lang": "ko", "sub_lnames": "Bundang-gu~Sujeong-gu~Jungwon-gu", "sub_zips": "13[3-6]|463~13[1-46]|461~13[1-4]|462", "zip": "13[1-6]|46[123]", "lname": "Seongnam-si", "sub_keys": "분당구~수정구~중원구", "key": "성남시", "id": "data/KR/경기도/성남시"}, "KR/경상북도/고령군": {"lang": "ko", "lname": "Goryeong-gun", "id": "data/KR/경상북도/고령군", "zip": "401|717", "key": "고령군"}, "KR/서울특별시": {"lang": "ko", "zipex": "06321", "isoid": "11", "zip": "0[1-8]\\d{2}|1[0-5]\\d[\\-]", "sub_zips": "06[0-3]|135~05[2-4]|134~01[0-2]|142~07[5-8]|157~08[78]|151~0(?:49|5[01])|143~08[23]|152~08[56]|153~01[6-9]|139~01[34]|132~02[4-6]|130~0(?:69|70)|156~0(?:39|4[0-2])|121~03[67]|120~06[5-8]|137~04[78]|133~02[78]|136~05[5-8]|138~0(?:78|8[01])|158~07[2-4]|150~04[34]|140~03[3-5]|122~03[01]|110~04[56]|100~02[0-2]|131", "lname": "Seoul", "sub_lnames": "Gangnam-gu~Gangdong-gu~Gangbuk-gu~Gangseo-gu~Gwanak-gu~Gwangjin-gu~Guro-gu~Geumcheon-gu~Nowon-gu~Dobong-gu~Dongdaemun-gu~Dongjak-gu~Mapo-gu~Seodaemun-gu~Seocho-gu~Seongdong-gu~Seongbuk-gu~Songpa-gu~Yangcheon-gu~Yeongdeungpo-gu~Yongsan-gu~Eunpyeong-gu~Jongno-gu~Jung-gu~Jungnang-gu", "sub_keys": "강남구~강동구~강북구~강서구~관악구~광진구~구로구~금천구~노원구~도봉구~동대문구~동작구~마포구~서대문구~서초구~성동구~성북구~송파구~양천구~영등포구~용산구~은평구~종로구~중구~중랑구", "key": "서울특별시", "id": "data/KR/서울특별시", "name": "서울"}, "KR/경상남도/창원시/성산구": {"lang": "ko", "lname": "Seongsan-gu", "id": "data/KR/경상남도/창원시/성산구", "zip": "51[457]|642", "key": "성산구"}, "KR/전라북도/정읍시": {"lang": "ko", "lname": "Jeongeup-si", "id": "data/KR/전라북도/정읍시", "zip": "56[12]|580", "key": "정읍시"}, "KR/충청북도/청주시": {"lang": "ko", "sub_lnames": "Sangdang-gu~Heungdeok-gu", "sub_zips": "28[1-3578]|360~28[13-6]|361", "zip": "36[0-3]", "lname": "Cheongju-si", "sub_keys": "상당구~흥덕구", "key": "청주시", "id": "data/KR/충청북도/청주시"}, "KR/대구광역시/북구": {"lang": "ko", "lname": "Buk-gu", "id": "data/KR/대구광역시/북구", "zip": "41[45]|702", "key": "북구"}, "KR/경상북도/경주시": {"lang": "ko", "lname": "Gyeongju-si", "id": "data/KR/경상북도/경주시", "zip": "38[0-2]|780", "key": "경주시"}, "KR/경상북도/영주시": {"lang": "ko", "lname": "Yeongju-si", "id": "data/KR/경상북도/영주시", "zip": "36[01]|750", "key": "영주시"}, "KR/강원도/춘천시": {"lang": "ko", "lname": "Chuncheon-si", "id": "data/KR/강원도/춘천시", "zip": "24[2-4]|2(?:0[09]|50)", "key": "춘천시"}, "KR/경상북도/포항시": {"lang": "ko", "sub_lnames": "Nam-gu~Buk-gu", "sub_zips": "37[6-9]|790~37[5-79]|791", "zip": "37[5-9]|79[01]", "lname": "Pohang-si", "sub_keys": "남구~북구", "key": "포항시", "id": "data/KR/경상북도/포항시"}, "KR/경상북도/청도군": {"lang": "ko", "lname": "Cheongdo-gun", "id": "data/KR/경상북도/청도군", "zip": "383|714", "key": "청도군"}, "KR/경기도/수원시": {"lang": "ko", "sub_lnames": "Gwonseon-gu~Yeongtong-gu~Jangan-gu~Paldal-gu", "sub_zips": "16[3-6]|441~16[245-7]|443~16[2-4]|440~16[2-6]|442", "zip": "16[2-7]|44[0123]", "lname": "Suwon-si", "sub_keys": "권선구~영통구~장안구~팔달구", "key": "수원시", "id": "data/KR/경기도/수원시"}, "KR/경기도/수원시/팔달구": {"lang": "ko", "lname": "Paldal-gu", "id": "data/KR/경기도/수원시/팔달구", "zip": "16[2-6]|442", "key": "팔달구"}, "KR/울산광역시/북구": {"lang": "ko", "lname": "Buk-gu", "id": "data/KR/울산광역시/북구", "zip": "442|683", "key": "북구"}, "KR/강원도/인제군": {"lang": "ko", "lname": "Inje-gun", "id": "data/KR/강원도/인제군", "zip": "246|25[02]", "key": "인제군"}, "KR/충청남도/서산시": {"lang": "ko", "lname": "Seosan-si", "id": "data/KR/충청남도/서산시", "zip": "3(?:19|20)|356", "key": "서산시"}, "KR/경상남도/의령군": {"lang": "ko", "lname": "Uiryeong-gun", "id": "data/KR/경상남도/의령군", "zip": "521|636", "key": "의령군"}, "KR/강원도/정선군": {"lang": "ko", "lname": "Jeongseon-gun", "id": "data/KR/강원도/정선군", "zip": "261|233", "key": "정선군"}, "KR/부산광역시/연제구": {"lang": "ko", "lname": "Yeonje-gu", "id": "data/KR/부산광역시/연제구", "zip": "47[56]|611", "key": "연제구"}, "KR/전라북도/부안군": {"lang": "ko", "lname": "Buan-gun", "id": "data/KR/전라북도/부안군", "zip": "563|579", "key": "부안군"}, "KR/경상북도/문경시": {"lang": "ko", "lname": "Mungyeong-si", "id": "data/KR/경상북도/문경시", "zip": "3(?:69|70)|745", "key": "문경시"}, "KR/경기도/용인시/처인구": {"lang": "ko", "lname": "Cheoin-gu", "id": "data/KR/경기도/용인시/처인구", "zip": "1(?:6[89]|7[01])|449", "key": "처인구"}, "KR/제주특별자치도/서귀포시": {"lang": "ko", "lname": "Seogwipo-si", "id": "data/KR/제주특별자치도/서귀포시", "zip": "63[56]|69[79]", "key": "서귀포시"}, "KR/전라남도/목포시": {"lang": "ko", "lname": "Mokpo-si", "id": "data/KR/전라남도/목포시", "zip": "58[67]|530", "key": "목포시"}, "KR/경상남도/창원시/마산회원구": {"lang": "ko", "lname": "Masanhoewon-gu", "id": "data/KR/경상남도/창원시/마산회원구", "zip": "51[23]|630", "key": "마산회원구"}, "KR/경상남도/남해군": {"lang": "ko", "lname": "Namhae-gun", "id": "data/KR/경상남도/남해군", "zip": "524|668[\\-]8", "key": "남해군"}, "KR/경상북도/울진군": {"lang": "ko", "lname": "Uljin-gun", "id": "data/KR/경상북도/울진군", "zip": "363|767", "key": "울진군"}, "KR/충청남도/천안시/동남구": {"lang": "ko", "lname": "Dongnam-gu", "id": "data/KR/충청남도/천안시/동남구", "zip": "31[0-2]|330", "key": "동남구"}, "KR/충청북도/괴산군": {"lang": "ko", "lname": "Goesan-gun", "id": "data/KR/충청북도/괴산군", "zip": "280|367", "key": "괴산군"}, "KR/충청남도": {"lang": "ko", "zipex": "32832", "isoid": "44", "zip": "3[1-3]\\d{2}|3(?:[1245]\\d|3[0-8])[\\-]", "sub_mores": "false~false~false~false~false~false~false~false~false~false~false~true~false~false~false", "sub_zips": "328|321~32[56]|314~327|312~3(?:29|30)|320~31[78]|343~33[45]|355~33[12]|323~3(?:19|20)|356~336|325~31[45]|336~324|340~31[0-2]|33[01]~333|345~321|357~322|350", "lname": "Chungcheongnam-do", "sub_lnames": "Gyeryong-si~Gongju-si~Geumsan-gun~Nonsan-si~Dangjin-si~Boryeong-si~Buyeo-gun~Seosan-si~Seocheon-gun~Asan-si~Yesan-gun~Cheonan-si~Cheongyang-gun~Taean-gun~Hongseong-gun", "sub_keys": "계룡시~공주시~금산군~논산시~당진시~보령시~부여군~서산시~서천군~아산시~예산군~천안시~청양군~태안군~홍성군", "key": "충청남도", "id": "data/KR/충청남도", "name": "충남"}, "KR/전라남도/나주시": {"lang": "ko", "lname": "Naju-si", "id": "data/KR/전라남도/나주시", "zip": "58[23]|520", "key": "나주시"}, "KR/경상북도/영덕군": {"lang": "ko", "lname": "Yeongdeok-gun", "id": "data/KR/경상북도/영덕군", "zip": "364|766", "key": "영덕군"}, "KR/경기도/용인시": {"lang": "ko", "sub_lnames": "Giheung-gu~Suji-gu~Cheoin-gu", "sub_zips": "1(?:6[89]|7[01])|446~16[89]|448~1(?:6[89]|7[01])|449", "zip": "1(?:6[89]|7[01])|44[689]", "lname": "Yongin-si", "sub_keys": "기흥구~수지구~처인구", "key": "용인시", "id": "data/KR/경기도/용인시"}, "KR/인천광역시/옹진군": {"lang": "ko", "lname": "Ongjin-gun", "id": "data/KR/인천광역시/옹진군", "zip": "231|409", "key": "옹진군"}, "KR/경기도/부천시/오정구": {"lang": "ko", "lname": "Ojeong-gu", "id": "data/KR/경기도/부천시/오정구", "zip": "14[45]|421", "key": "오정구"}, "KR/대구광역시/수성구": {"lang": "ko", "lname": "Suseong-gu", "id": "data/KR/대구광역시/수성구", "zip": "42[0-2]|706", "key": "수성구"}, "KR/제주특별자치도": {"lang": "ko", "zipex": "63563", "isoid": "49", "zip": "63[0-356]\\d|69[0579][\\-]", "sub_zips": "63[56]|69[79]~63[0-3]|69[05]", "lname": "Jeju-do", "sub_lnames": "Seogwipo-si~Jeju-si", "sub_keys": "서귀포시~제주시", "key": "제주특별자치도", "id": "data/KR/제주특별자치도", "name": "제주"}, "KR/대구광역시/중구": {"lang": "ko", "lname": "Jung-gu", "id": "data/KR/대구광역시/중구", "zip": "419|700", "key": "중구"}, "KR/전라남도/화순군": {"lang": "ko", "lname": "Hwasun-gun", "id": "data/KR/전라남도/화순군", "zip": "581|519", "key": "화순군"}, "KR/울산광역시/중구": {"lang": "ko", "lname": "Jung-gu", "id": "data/KR/울산광역시/중구", "zip": "44[45]|681", "key": "중구"}, "KR/충청북도/청원군": {"lang": "ko", "lname": "Cheongwon-gun", "id": "data/KR/충청북도/청원군", "zip": "28[13-5]|363", "key": "청원군"}, "KR/충청북도/진천군": {"lang": "ko", "lname": "Jincheon-gun", "id": "data/KR/충청북도/진천군", "zip": "278|365", "key": "진천군"}, "KR/부산광역시": {"lang": "ko", "zipex": "46706", "isoid": "26", "zip": "4[6-9]\\d{2}|6[0-1]\\d[\\-]", "sub_zips": "467|618~46[23]|609~460|619~48[45]|608~48[78]|601~47[789]|607~47[123]|614~46[56]|616~4(?:69|70)|617~49[345]|604~492|602~48[23]|613~47[56]|611~49[01]|606~489|600~48[01]|612", "lname": "Busan", "sub_lnames": "Gangseo-gu~Geumjeong-gu~Gijang-gun~Nam-gu~Dong-gu~Dongnae-gu~Busanjin-gu~Buk-gu~Sasang-gu~Saha-gu~Seo-gu~Suyeong-gu~Yeonje-gu~Yeongdo-gu~Jung-gu~Haeundae-gu", "sub_keys": "강서구~금정구~기장군~남구~동구~동래구~부산진구~북구~사상구~사하구~서구~수영구~연제구~영도구~중구~해운대구", "key": "부산광역시", "id": "data/KR/부산광역시", "name": "부산"}, "KR/경기도/광주시": {"lang": "ko", "lname": "Gwangju-si", "id": "data/KR/경기도/광주시", "zip": "12[78]|464", "key": "광주시"}, "KR/서울특별시/마포구": {"lang": "ko", "lname": "Mapo-gu", "id": "data/KR/서울특별시/마포구", "zip": "0(?:39|4[0-2])|121", "key": "마포구"}, "KR/전라남도/해남군": {"lang": "ko", "lname": "Haenam-gun", "id": "data/KR/전라남도/해남군", "zip": "590|536", "key": "해남군"}, "KR/서울특별시/도봉구": {"lang": "ko", "lname": "Dobong-gu", "id": "data/KR/서울특별시/도봉구", "zip": "01[34]|132", "key": "도봉구"}, "KR/충청남도/아산시": {"lang": "ko", "lname": "Asan-si", "id": "data/KR/충청남도/아산시", "zip": "31[45]|336", "key": "아산시"}, "KR/충청북도/청주시/흥덕구": {"lang": "ko", "lname": "Heungdeok-gu", "id": "data/KR/충청북도/청주시/흥덕구", "zip": "28[13-6]|361", "key": "흥덕구"}, "KR/충청남도/천안시/서북구": {"lang": "ko", "lname": "Seobuk-gu", "id": "data/KR/충청남도/천안시/서북구", "zip": "31[01]|331", "key": "서북구"}, "KR/충청북도/옥천군": {"lang": "ko", "lname": "Okcheon-gun", "id": "data/KR/충청북도/옥천군", "zip": "290|373[\\-]8", "key": "옥천군"}, "KR/서울특별시/서초구": {"lang": "ko", "lname": "Seocho-gu", "id": "data/KR/서울특별시/서초구", "zip": "06[5-8]|137", "key": "서초구"}, "KR/전라남도/담양군": {"lang": "ko", "lname": "Damyang-gun", "id": "data/KR/전라남도/담양군", "zip": "573|517", "key": "담양군"}, "KR/전라남도/진도군": {"lang": "ko", "lname": "Jindo-gun", "id": "data/KR/전라남도/진도군", "zip": "589|539", "key": "진도군"}, "KR/경기도/평택시": {"lang": "ko", "lname": "Pyeongtaek-si", "id": "data/KR/경기도/평택시", "zip": "1(?:7[7-9]|80)|45[019]", "key": "평택시"}, "KR/전라남도/무안군": {"lang": "ko", "lname": "Muan-gun", "id": "data/KR/전라남도/무안군", "zip": "585|534", "key": "무안군"}, "KR/경기도/수원시/영통구": {"lang": "ko", "lname": "Yeongtong-gu", "id": "data/KR/경기도/수원시/영통구", "zip": "16[245-7]|443", "key": "영통구"}, "KR/충청남도/계룡시": {"lang": "ko", "lname": "Gyeryong-si", "id": "data/KR/충청남도/계룡시", "zip": "328|321", "key": "계룡시"}, "KR/경기도/시흥시": {"lang": "ko", "lname": "Siheung-si", "id": "data/KR/경기도/시흥시", "zip": "1(?:49|5[01])|429", "key": "시흥시"}, "KR/서울특별시/용산구": {"lang": "ko", "lname": "Yongsan-gu", "id": "data/KR/서울특별시/용산구", "zip": "04[34]|140", "key": "용산구"}, "KR/부산광역시/사상구": {"lang": "ko", "lname": "Sasang-gu", "id": "data/KR/부산광역시/사상구", "zip": "4(?:69|70)|617", "key": "사상구"}, "KR/경상남도/거창군": {"lang": "ko", "lname": "Geochang-gun", "id": "data/KR/경상남도/거창군", "zip": "501|670", "key": "거창군"}, "KR/경기도/부천시/원미구": {"lang": "ko", "lname": "Wonmi-gu", "id": "data/KR/경기도/부천시/원미구", "zip": "14[456]|420", "key": "원미구"}, "KR/부산광역시/수영구": {"lang": "ko", "lname": "Suyeong-gu", "id": "data/KR/부산광역시/수영구", "zip": "48[23]|613", "key": "수영구"}, "KR/서울특별시/강남구": {"lang": "ko", "lname": "Gangnam-gu", "id": "data/KR/서울특별시/강남구", "zip": "06[0-3]|135", "key": "강남구"}, "KR/경상북도": {"lang": "ko", "zipex": "38540", "isoid": "47", "zip": "(?:3[6-9]|40)\\d{2}|7(?:1[2-9]|[3-9]\\d)[\\-]", "sub_mores": "false~false~false~false~false~false~false~false~false~false~false~false~false~false~false~false~false~false~false~false~false~false~true", "sub_zips": "38[4-6]|712~38[0-2]|780~401|717~39[1-4]|730~390|716~39[56]|740~3(?:69|70)|745~362|755[\\-]8~37[12]|742~400|719[\\-]8~36[67]|760~364|766~365|764[\\-]8~36[01]|750~38[89]|770~368|757~402|799[\\-]8~363|767~373|769~383|714~374|763~39[89]|718~37[5-9]|79[01]", "lname": "Gyeongsangbuk-do", "sub_lnames": "Gyeongsan-si~Gyeongju-si~Goryeong-gun~Gumi-si~Gunwi-gun~Gimcheon-si~Mungyeong-si~Bonghwa-gun~Sangju-si~Seongju-gun~Andong-si~Yeongdeok-gun~Yeongyang-gun~Yeongju-si~Yeongcheon-si~Yecheon-gun~Ulleung-gun~Uljin-gun~Uiseong-gun~Cheongdo-gun~Cheongsong-gun~Chilgok-gun~Pohang-si", "sub_keys": "경산시~경주시~고령군~구미시~군위군~김천시~문경시~봉화군~상주시~성주군~안동시~영덕군~영양군~영주시~영천시~예천군~울릉군~울진군~의성군~청도군~청송군~칠곡군~포항시", "key": "경상북도", "id": "data/KR/경상북도", "name": "경북"}, "KR/서울특별시/구로구": {"lang": "ko", "lname": "Guro-gu", "id": "data/KR/서울특별시/구로구", "zip": "08[23]|152", "key": "구로구"}, "KR/경상남도/창원시/의창구": {"lang": "ko", "lname": "Uichang-gu", "id": "data/KR/경상남도/창원시/의창구", "zip": "51[1-4]|641", "key": "의창구"}, "KR/전라북도/완주군": {"lang": "ko", "lname": "Wanju-gun", "id": "data/KR/전라북도/완주군", "zip": "553|565", "key": "완주군"}, "KR/인천광역시/서구": {"lang": "ko", "lname": "Seo-gu", "id": "data/KR/인천광역시/서구", "zip": "22[6-8]|404", "key": "서구"}, "KR/전라남도/강진군": {"lang": "ko", "lname": "Gangjin-gun", "id": "data/KR/전라남도/강진군", "zip": "592|527", "key": "강진군"}, "KR/경기도/광명시": {"lang": "ko", "lname": "Gwangmyeong-si", "id": "data/KR/경기도/광명시", "zip": "14[23]|423", "key": "광명시"}, "KR/경기도/의정부시": {"lang": "ko", "lname": "Uijeongbu-si", "id": "data/KR/경기도/의정부시", "zip": "11[6-8]|480", "key": "의정부시"}, "KR/서울특별시/영등포구": {"lang": "ko", "lname": "Yeongdeungpo-gu", "id": "data/KR/서울특별시/영등포구", "zip": "07[2-4]|150", "key": "영등포구"}, "KR/경상남도/사천시": {"lang": "ko", "lname": "Sacheon-si", "id": "data/KR/경상남도/사천시", "zip": "525|664", "key": "사천시"}, "KR/경기도/고양시/덕양구": {"lang": "ko", "lname": "Deogyang-gu", "id": "data/KR/경기도/고양시/덕양구", "zip": "10[245]|41[02]", "key": "덕양구"}, "KR/충청북도/단양군": {"lang": "ko", "lname": "Danyang-gun", "id": "data/KR/충청북도/단양군", "zip": "270|395", "key": "단양군"}, "KR/전라북도/임실군": {"lang": "ko", "lname": "Imsil-gun", "id": "data/KR/전라북도/임실군", "zip": "559|566", "key": "임실군"}, "KR/충청남도/금산군": {"lang": "ko", "lname": "Geumsan-gun", "id": "data/KR/충청남도/금산군", "zip": "327|312", "key": "금산군"}, "KR/대전광역시/대덕구": {"lang": "ko", "lname": "Daedeok-gu", "id": "data/KR/대전광역시/대덕구", "zip": "34[34]|306", "key": "대덕구"}, "KR/경기도/연천군": {"lang": "ko", "lname": "Yeoncheon-gun", "id": "data/KR/경기도/연천군", "zip": "110|48[0267]", "key": "연천군"}, "KR/경상북도/울릉군": {"lang": "ko", "lname": "Ulleung-gun", "id": "data/KR/경상북도/울릉군", "zip": "402|799[\\-]8", "key": "울릉군"}, "KR/대전광역시/동구": {"lang": "ko", "lname": "Dong-gu", "id": "data/KR/대전광역시/동구", "zip": "34[5-7]|300", "key": "동구"}, "KR/경기도/김포시": {"lang": "ko", "lname": "Gimpo-si", "id": "data/KR/경기도/김포시", "zip": "10[01]|415", "key": "김포시"}, "KR/경기도/오산시": {"lang": "ko", "lname": "Osan-si", "id": "data/KR/경기도/오산시", "zip": "181|447", "key": "오산시"}, "KR/인천광역시/부평구": {"lang": "ko", "lname": "Bupyeong-gu", "id": "data/KR/인천광역시/부평구", "zip": "21[34]|403", "key": "부평구"}, "KR/강원도/고성군": {"lang": "ko", "lname": "Goseong-gun", "id": "data/KR/강원도/고성군", "zip": "247|219", "key": "고성군"}, "KR/경상북도/성주군": {"lang": "ko", "lname": "Seongju-gun", "id": "data/KR/경상북도/성주군", "zip": "400|719[\\-]8", "key": "성주군"}, "KR/충청북도/제천시": {"lang": "ko", "lname": "Jecheon-si", "id": "data/KR/충청북도/제천시", "zip": "27[12]|390", "key": "제천시"}, "KR/부산광역시/금정구": {"lang": "ko", "lname": "Geumjeong-gu", "id": "data/KR/부산광역시/금정구", "zip": "46[23]|609", "key": "금정구"}, "KR/전라남도/완도군": {"lang": "ko", "lname": "Wando-gun", "id": "data/KR/전라남도/완도군", "zip": "591|5(?:27|3[67]|48)", "key": "완도군"}, "KR/인천광역시/계양구": {"lang": "ko", "lname": "Gyeyang-gu", "id": "data/KR/인천광역시/계양구", "zip": "21[01]|407", "key": "계양구"}, "KR/충청북도/영동군": {"lang": "ko", "lname": "Yeongdong-gun", "id": "data/KR/충청북도/영동군", "zip": "291|370", "key": "영동군"}, "KR/서울특별시/은평구": {"lang": "ko", "lname": "Eunpyeong-gu", "id": "data/KR/서울특별시/은평구", "zip": "03[3-5]|122", "key": "은평구"}, "KR/세종특별자치시": {"lang": "ko", "zipex": "30065", "isoid": "50", "zip": "30[01]\\d|339[\\-]", "lname": "Sejong", "key": "세종특별자치시", "id": "data/KR/세종특별자치시", "name": "세종"}, "KR/경기도/동두천시": {"lang": "ko", "lname": "Dongducheon-si", "id": "data/KR/경기도/동두천시", "zip": "113|48[236]", "key": "동두천시"}, "KR/대전광역시/유성구": {"lang": "ko", "lname": "Yuseong-gu", "id": "data/KR/대전광역시/유성구", "zip": "34[0-2]|305", "key": "유성구"}, "KR/경기도/안양시/동안구": {"lang": "ko", "lname": "Dongan-gu", "id": "data/KR/경기도/안양시/동안구", "zip": "1(?:39|4[01])|431", "key": "동안구"}, "KR/경기도/고양시": {"lang": "ko", "sub_lnames": "Deogyang-gu~Ilsandong-gu~Ilsanseo-gu", "sub_zips": "10[245]|41[02]~10[2-4]|410~10[2-4]|411", "zip": "10[2-5]|41[012]", "lname": "Goyang-si", "sub_keys": "덕양구~일산동구~일산서구", "key": "고양시", "id": "data/KR/경기도/고양시"}, "KR/서울특별시/강서구": {"lang": "ko", "lname": "Gangseo-gu", "id": "data/KR/서울특별시/강서구", "zip": "07[5-8]|157", "key": "강서구"}, "KR/경기도/가평군": {"lang": "ko", "lname": "Gapyeong-gun", "id": "data/KR/경기도/가평군", "zip": "124|477", "key": "가평군"}, "KR/경기도/성남시/분당구": {"lang": "ko", "lname": "Bundang-gu", "id": "data/KR/경기도/성남시/분당구", "zip": "13[3-6]|463", "key": "분당구"}, "KR/서울특별시/동대문구": {"lang": "ko", "lname": "Dongdaemun-gu", "id": "data/KR/서울특별시/동대문구", "zip": "02[4-6]|130", "key": "동대문구"}, "KR/광주광역시/광산구": {"lang": "ko", "lname": "Gwangsan-gu", "id": "data/KR/광주광역시/광산구", "zip": "62[2-4]|506", "key": "광산구"}, "KR/충청남도/부여군": {"lang": "ko", "lname": "Buyeo-gun", "id": "data/KR/충청남도/부여군", "zip": "33[12]|323", "key": "부여군"}, "KR/대구광역시/동구": {"lang": "ko", "lname": "Dong-gu", "id": "data/KR/대구광역시/동구", "zip": "41[0-2]|701", "key": "동구"}, "KR/경상북도/봉화군": {"lang": "ko", "lname": "Bonghwa-gun", "id": "data/KR/경상북도/봉화군", "zip": "362|755[\\-]8", "key": "봉화군"}, "KR/강원도/동해시": {"lang": "ko", "lname": "Donghae-si", "id": "data/KR/강원도/동해시", "zip": "25[78]|24[05]", "key": "동해시"}, "KR/경상남도/창녕군": {"lang": "ko", "lname": "Changnyeong-gun", "id": "data/KR/경상남도/창녕군", "zip": "503|635", "key": "창녕군"}, "KR/충청남도/천안시": {"lang": "ko", "sub_lnames": "Dongnam-gu~Seobuk-gu", "sub_zips": "31[0-2]|330~31[01]|331", "zip": "31[0-2]|33[01]", "lname": "Cheonan-si", "sub_keys": "동남구~서북구", "key": "천안시", "id": "data/KR/충청남도/천안시"}, "KR/경기도/안산시": {"lang": "ko", "sub_lnames": "Danwon-gu~Sangnok-gu", "sub_zips": "15[2-6]|425~15[2-6]|426", "zip": "15[2-6]|42[56]", "lname": "Ansan-si", "sub_keys": "단원구~상록구", "key": "안산시", "id": "data/KR/경기도/안산시"}, "KR/대구광역시": {"lang": "ko", "zipex": "42456", "isoid": "27", "zip": "4[12]\\d{2}|7(?:0[0-6]|11)[\\-]", "sub_zips": "42[45]|705~42[678]|704~4(?:29|30)|711~41[0-2]|701~41[45]|702~41[78]|703~42[0-2]|706~419|700", "lname": "Daegu", "sub_lnames": "Nam-gu~Dalseo-gu~Dalseong-gun~Dong-gu~Buk-gu~Seo-gu~Suseong-gu~Jung-gu", "sub_keys": "남구~달서구~달성군~동구~북구~서구~수성구~중구", "key": "대구광역시", "id": "data/KR/대구광역시", "name": "대구"}, "KR/강원도/영월군": {"lang": "ko", "lname": "Yeongwol-gun", "id": "data/KR/강원도/영월군", "zip": "262|230", "key": "영월군"}, "KR/경기도/의왕시": {"lang": "ko", "lname": "Uiwang-si", "id": "data/KR/경기도/의왕시", "zip": "16[01]|437", "key": "의왕시"}, "KR/경기도/양평군": {"lang": "ko", "lname": "Yangpyeong-gun", "id": "data/KR/경기도/양평군", "zip": "125|476", "key": "양평군"}, "KR/경상남도/함안군": {"lang": "ko", "lname": "Haman-gun", "id": "data/KR/경상남도/함안군", "zip": "520|637", "key": "함안군"}, "KR/서울특별시/서대문구": {"lang": "ko", "lname": "Seodaemun-gu", "id": "data/KR/서울특별시/서대문구", "zip": "03[67]|120", "key": "서대문구"}, "KR/경상북도/김천시": {"lang": "ko", "lname": "Gimcheon-si", "id": "data/KR/경상북도/김천시", "zip": "39[56]|740", "key": "김천시"}, "KR/경상남도/밀양시": {"lang": "ko", "lname": "Miryang-si", "id": "data/KR/경상남도/밀양시", "zip": "504|627", "key": "밀양시"}, "KR/부산광역시/남구": {"lang": "ko", "lname": "Nam-gu", "id": "data/KR/부산광역시/남구", "zip": "48[45]|608", "key": "남구"}, "KR/경기도/안양시/만안구": {"lang": "ko", "lname": "Manan-gu", "id": "data/KR/경기도/안양시/만안구", "zip": "1(?:39|40)|430", "key": "만안구"}, "KR/대전광역시/서구": {"lang": "ko", "lname": "Seo-gu", "id": "data/KR/대전광역시/서구", "zip": "35[2-4]|302", "key": "서구"}, "KR/충청남도/당진시": {"lang": "ko", "lname": "Dangjin-si", "id": "data/KR/충청남도/당진시", "zip": "31[78]|343", "key": "당진시"}, "KR/서울특별시/종로구": {"lang": "ko", "lname": "Jongno-gu", "id": "data/KR/서울특별시/종로구", "zip": "03[01]|110", "key": "종로구"}, "KR/충청남도/청양군": {"lang": "ko", "lname": "Cheongyang-gun", "id": "data/KR/충청남도/청양군", "zip": "333|345", "key": "청양군"}, "KR/전라남도/순천시": {"lang": "ko", "lname": "Suncheon-si", "id": "data/KR/전라남도/순천시", "zip": "5(?:79|80)|540", "key": "순천시"}, "KR/대구광역시/달성군": {"lang": "ko", "lname": "Dalseong-gun", "id": "data/KR/대구광역시/달성군", "zip": "4(?:29|30)|711", "key": "달성군"}, "KR/대전광역시/중구": {"lang": "ko", "lname": "Jung-gu", "id": "data/KR/대전광역시/중구", "zip": "3(?:4[89]|50)|301", "key": "중구"}, "KR/경상북도/상주시": {"lang": "ko", "lname": "Sangju-si", "id": "data/KR/경상북도/상주시", "zip": "37[12]|742", "key": "상주시"}, "KR/경상남도/창원시/진해구": {"lang": "ko", "lname": "Jinhae-gu", "id": "data/KR/경상남도/창원시/진해구", "zip": "51[5-7]|645", "key": "진해구"}, "KR/강원도/평창군": {"lang": "ko", "lname": "Pyeongchang-gun", "id": "data/KR/강원도/평창군", "zip": "253|232", "key": "평창군"}, "KR/경상북도/경산시": {"lang": "ko", "lname": "Gyeongsan-si", "id": "data/KR/경상북도/경산시", "zip": "38[4-6]|712", "key": "경산시"}, "KR/강원도/강릉시": {"lang": "ko", "lname": "Gangneung-si", "id": "data/KR/강원도/강릉시", "zip": "25[4-6]|210", "key": "강릉시"}, "KR/서울특별시/성동구": {"lang": "ko", "lname": "Seongdong-gu", "id": "data/KR/서울특별시/성동구", "zip": "04[78]|133", "key": "성동구"}, "KR/경기도/화성시": {"lang": "ko", "lname": "Hwaseong-si", "id": "data/KR/경기도/화성시", "zip": "18[2-6]|445", "key": "화성시"}, "KR/울산광역시/남구": {"lang": "ko", "lname": "Nam-gu", "id": "data/KR/울산광역시/남구", "zip": "44[67]|680", "key": "남구"}, "KR/경상남도/거제시": {"lang": "ko", "lname": "Geoje-si", "id": "data/KR/경상남도/거제시", "zip": "53[23]|656", "key": "거제시"}, "KR/부산광역시/기장군": {"lang": "ko", "lname": "Gijang-gun", "id": "data/KR/부산광역시/기장군", "zip": "460|619", "key": "기장군"}, "KR/서울특별시/동작구": {"lang": "ko", "lname": "Dongjak-gu", "id": "data/KR/서울특별시/동작구", "zip": "0(?:69|70)|156", "key": "동작구"}, "KR/강원도/삼척시": {"lang": "ko", "lname": "Samcheok-si", "id": "data/KR/강원도/삼척시", "zip": "259|245", "key": "삼척시"}, "KR/전라북도/무주군": {"lang": "ko", "lname": "Muju-gun", "id": "data/KR/전라북도/무주군", "zip": "555|568", "key": "무주군"}, "KR/부산광역시/강서구": {"lang": "ko", "lname": "Gangseo-gu", "id": "data/KR/부산광역시/강서구", "zip": "467|618", "key": "강서구"}, "KR/서울특별시/관악구": {"lang": "ko", "lname": "Gwanak-gu", "id": "data/KR/서울특별시/관악구", "zip": "08[78]|151", "key": "관악구"}, "KR/경기도/성남시/수정구": {"lang": "ko", "lname": "Sujeong-gu", "id": "data/KR/경기도/성남시/수정구", "zip": "13[1-46]|461", "key": "수정구"}, "KR/전라남도/여수시": {"lang": "ko", "lname": "Yeosu-si", "id": "data/KR/전라남도/여수시", "zip": "59[67]|55[056]", "key": "여수시"}, "KR/전라남도/영광군": {"lang": "ko", "lname": "Yeonggwang-gun", "id": "data/KR/전라남도/영광군", "zip": "570|513", "key": "영광군"}, "KR/경상남도/양산시": {"lang": "ko", "lname": "Yangsan-si", "id": "data/KR/경상남도/양산시", "zip": "50[56]|626", "key": "양산시"}, "KR/전라남도/영암군": {"lang": "ko", "lname": "Yeongam-gun", "id": "data/KR/전라남도/영암군", "zip": "584|526", "key": "영암군"}, "KR/충청북도/증평군": {"lang": "ko", "lname": "Jeungpyeong-gun", "id": "data/KR/충청북도/증평군", "zip": "279|368", "key": "증평군"}, "KR/대구광역시/서구": {"lang": "ko", "lname": "Seo-gu", "id": "data/KR/대구광역시/서구", "zip": "41[78]|703", "key": "서구"}, "KR/경기도/여주시": {"lang": "ko", "lname": "Yeoju-si", "id": "data/KR/경기도/여주시", "zip": "126|469", "key": "여주시"}, "KR/경기도/양주시": {"lang": "ko", "lname": "Yangju-si", "id": "data/KR/경기도/양주시", "zip": "11[45]|4(?:12|8[027])", "key": "양주시"}, "KR/경기도/안양시": {"lang": "ko", "sub_lnames": "Dongan-gu~Manan-gu", "sub_zips": "1(?:39|4[01])|431~1(?:39|40)|430", "zip": "1(?:39|4[01])|43[01]", "lname": "Anyang-si", "sub_keys": "동안구~만안구", "key": "안양시", "id": "data/KR/경기도/안양시"}, "KR": {"lang": "ko", "upper": "Z", "sub_zipexs": "25627~12410~53286~38540~62394~42456~34316~46706~06321~30065~44782~23024~59222~56445~63563~32832~28006", "zipex": "03051", "name": "SOUTH KOREA", "zip": "\\d{3}(?:\\d{2}|[\\-]\\d{3})", "sublocality_name_type": "district", "sub_mores": "true~true~true~true~true~true~true~true~true~false~true~true~true~true~true~true~true", "fmt": "%S %C%D%n%A%n%O%n%N%n%Z", "state_name_type": "do_si", "languages": "ko", "lfmt": "%N%n%O%n%A%n%D%n%C%n%S%n%Z", "sub_lnames": "Gangwon-do~Gyeonggi-do~Gyeongsangnam-do~Gyeongsangbuk-do~Gwangju~Daegu~Daejeon~Busan~Seoul~Sejong~Ulsan~Incheon~Jeollanam-do~Jeollabuk-do~Jeju-do~Chungcheongnam-do~Chungcheongbuk-do", "sub_keys": "강원도~경기도~경상남도~경상북도~광주광역시~대구광역시~대전광역시~부산광역시~서울특별시~세종특별자치시~울산광역시~인천광역시~전라남도~전라북도~제주특별자치도~충청남도~충청북도", "key": "KR", "sub_isoids": "42~41~48~47~29~27~30~26~11~50~31~28~46~45~49~44~43", "require": "ACSZ", "posturl": "http://www.epost.go.kr/search/zipcode/search5.jsp", "id": "data/KR", "sub_names": "강원~경기~경남~경북~광주~대구~대전~부산~서울~세종~울산~인천~전남~전북~제주~충남~충북", "sub_zips": "2[456]\\d{2}|2[0-6]\\d[\\-]|487[\\-]839~1[0-8]\\d{2}|4(?:1[0-6]|[2-8]\\d)[\\-]~5[0-3]\\d{2}|6[2-7]\\d[\\-]~(?:3[6-9]|40)\\d{2}|7(?:1[2-9]|[3-9]\\d)[\\-]~6[12]\\d{2}|50[0-36][\\-]~4[12]\\d{2}|7(?:0[0-6]|11)[\\-]~3[45]\\d{2}|30[0-25-6][\\-]~4[6-9]\\d{2}|6[0-1]\\d[\\-]~0[1-8]\\d{2}|1[0-5]\\d[\\-]~30[01]\\d|339[\\-]~4[45]\\d{2}|68[0-39][\\-]~2[1-3]\\d{2}|4(?:0[0-79]|17)[\\-]~5[7-9]\\d{2}|5[1-5]\\d[\\-]~5[4-6]\\d{2}|5[6-9]\\d[\\-]~63[0-356]\\d|69[0579][\\-]~3[1-3]\\d{2}|3(?:[1245]\\d|3[0-8])[\\-]~2[789]\\d{2}|3[6-9]\\d[\\-]"}, "KR/경기도/남양주시": {"lang": "ko", "lname": "Namyangju-si", "id": "data/KR/경기도/남양주시", "zip": "12[0-3]|4(?:7[12]|80)", "key": "남양주시"}, "KR/강원도/화천군": {"lang": "ko", "lname": "Hwacheon-gun", "id": "data/KR/강원도/화천군", "zip": "241|209[\\-]8", "key": "화천군"}, "KR/경상북도/영양군": {"lang": "ko", "lname": "Yeongyang-gun", "id": "data/KR/경상북도/영양군", "zip": "365|764[\\-]8", "key": "영양군"}, "KR/충청북도/청주시/상당구": {"lang": "ko", "lname": "Sangdang-gu", "id": "data/KR/충청북도/청주시/상당구", "zip": "28[1-3578]|360", "key": "상당구"}, "KR/광주광역시/서구": {"lang": "ko", "lname": "Seo-gu", "id": "data/KR/광주광역시/서구", "zip": "6(?:19|20)|502", "key": "서구"}, "KR/충청남도/보령시": {"lang": "ko", "lname": "Boryeong-si", "id": "data/KR/충청남도/보령시", "zip": "33[45]|355", "key": "보령시"}, "KR/서울특별시/노원구": {"lang": "ko", "lname": "Nowon-gu", "id": "data/KR/서울특별시/노원구", "zip": "01[6-9]|139", "key": "노원구"}, "KR/강원도/홍천군": {"lang": "ko", "lname": "Hongcheon-gun", "id": "data/KR/강원도/홍천군", "zip": "251|250", "key": "홍천군"}, "KR/경기도/하남시": {"lang": "ko", "lname": "Hanam-si", "id": "data/KR/경기도/하남시", "zip": "1(?:29|30)|465", "key": "하남시"}, "KR/경상북도/구미시": {"lang": "ko", "lname": "Gumi-si", "id": "data/KR/경상북도/구미시", "zip": "39[1-4]|730", "key": "구미시"}, "KR/경상북도/안동시": {"lang": "ko", "lname": "Andong-si", "id": "data/KR/경상북도/안동시", "zip": "36[67]|760", "key": "안동시"}, "KR/강원도": {"lang": "ko", "zipex": "25627", "isoid": "42", "zip": "2[456]\\d{2}|2[0-6]\\d[\\-]|487[\\-]839", "sub_zips": "25[4-6]|210~247|219~25[78]|24[05]~259|245~24[89]|21[79]~245|255[\\-]8~250|215~262|230~26[3-5]|220~246|25[02]~261|233~240|209|269|487[\\-]839~24[2-4]|2(?:0[09]|50)~260|235~253|232~251|250~241|209[\\-]8~252|225", "lname": "Gangwon-do", "sub_lnames": "Gangneung-si~Goseong-gun~Donghae-si~Samcheok-si~Sokcho-si~Yanggu-gun~Yangyang-gun~Yeongwol-gun~Wonju-si~Inje-gun~Jeongseon-gun~Cheorwon-gun~Chuncheon-si~Taebaek-si~Pyeongchang-gun~Hongcheon-gun~Hwacheon-gun~Hoengseong-gun", "sub_keys": "강릉시~고성군~동해시~삼척시~속초시~양구군~양양군~영월군~원주시~인제군~정선군~철원군~춘천시~태백시~평창군~홍천군~화천군~횡성군", "key": "강원도", "id": "data/KR/강원도", "name": "강원"}, "KR/전라북도/순창군": {"lang": "ko", "lname": "Sunchang-gun", "id": "data/KR/전라북도/순창군", "zip": "560|595", "key": "순창군"}, "KR/부산광역시/북구": {"lang": "ko", "lname": "Buk-gu", "id": "data/KR/부산광역시/북구", "zip": "46[56]|616", "key": "북구"}, "KR/전라북도/전주시/완산구": {"lang": "ko", "lname": "Wansan-gu", "id": "data/KR/전라북도/전주시/완산구", "zip": "5(?:4[89]|5[01])560", "key": "완산구"}, "KR/부산광역시/서구": {"lang": "ko", "lname": "Seo-gu", "id": "data/KR/부산광역시/서구", "zip": "492|602", "key": "서구"}, "KR/강원도/태백시": {"lang": "ko", "lname": "Taebaek-si", "id": "data/KR/강원도/태백시", "zip": "260|235", "key": "태백시"}, "KR/강원도/양구군": {"lang": "ko", "lname": "Yanggu-gun", "id": "data/KR/강원도/양구군", "zip": "245|255[\\-]8", "key": "양구군"}, "KR/전라남도": {"lang": "ko", "zipex": "59222", "isoid": "46", "zip": "5[7-9]\\d{2}|5[1-5]\\d[\\-]", "sub_zips": "592|527~595|548~575|516~57[78]|545~576|542[\\-]8~58[23]|520~573|517~58[67]|530~585|534~594|546~5(?:79|80)|540~588|53[05]~59[67]|55[056]~570|513~584|526~591|5(?:27|3[67]|48)~572|515~593|529~589|539~571|525[\\-]8~590|536~581|519", "lname": "Jeollanam-do", "sub_lnames": "Gangjin-gun~Goheung-gun~Gokseong-gun~Gwangyang-si~Gurye-gun~Naju-si~Damyang-gun~Mokpo-si~Muan-gun~Boseong-gun~Suncheon-si~Sinan-gun~Yeosu-si~Yeonggwang-gun~Yeongam-gun~Wando-gun~Jangseong-gun~Jangheung-gun~Jindo-gun~Hampyeong-gun~Haenam-gun~Hwasun-gun", "sub_keys": "강진군~고흥군~곡성군~광양시~구례군~나주시~담양군~목포시~무안군~보성군~순천시~신안군~여수시~영광군~영암군~완도군~장성군~장흥군~진도군~함평군~해남군~화순군", "key": "전라남도", "id": "data/KR/전라남도", "name": "전남"}, "KR/전라남도/곡성군": {"lang": "ko", "lname": "Gokseong-gun", "id": "data/KR/전라남도/곡성군", "zip": "575|516", "key": "곡성군"}, "KR/대구광역시/남구": {"lang": "ko", "lname": "Nam-gu", "id": "data/KR/대구광역시/남구", "zip": "42[45]|705", "key": "남구"}, "KR/전라북도/고창군": {"lang": "ko", "lname": "Gochang-gun", "id": "data/KR/전라북도/고창군", "zip": "564|5(?:79|85)", "key": "고창군"}, "KR/경기도/성남시/중원구": {"lang": "ko", "lname": "Jungwon-gu", "id": "data/KR/경기도/성남시/중원구", "zip": "13[1-4]|462", "key": "중원구"}, "KR/부산광역시/해운대구": {"lang": "ko", "lname": "Haeundae-gu", "id": "data/KR/부산광역시/해운대구", "zip": "48[01]|612", "key": "해운대구"}, "KR/전라북도/진안군": {"lang": "ko", "lname": "Jinan-gun", "id": "data/KR/전라북도/진안군", "zip": "554|567", "key": "진안군"}, "KR/경상남도/합천군": {"lang": "ko", "lname": "Hapcheon-gun", "id": "data/KR/경상남도/합천군", "zip": "502|678", "key": "합천군"}, "KR/인천광역시": {"lang": "ko", "zipex": "23024", "isoid": "28", "zip": "2[1-3]\\d{2}|4(?:0[0-79]|17)[\\-]", "sub_zips": "230|417~21[01]|407~22[12]|402~21[5-7]|405~225|401~21[34]|403~22[6-8]|404~2(?:19|20)|406~231|409~223|400", "lname": "Incheon", "sub_lnames": "Ganghwa-gun~Gyeyang-gu~Nam-gu~Namdong-gu~Dong-gu~Bupyeong-gu~Seo-gu~Yeonsu-gu~Ongjin-gun~Jung-gu", "sub_keys": "강화군~계양구~남구~남동구~동구~부평구~서구~연수구~옹진군~중구", "key": "인천광역시", "id": "data/KR/인천광역시", "name": "인천"}, "KR/부산광역시/영도구": {"lang": "ko", "lname": "Yeongdo-gu", "id": "data/KR/부산광역시/영도구", "zip": "49[01]|606", "key": "영도구"}, "KR/울산광역시/동구": {"lang": "ko", "lname": "Dong-gu", "id": "data/KR/울산광역시/동구", "zip": "44[01]|682", "key": "동구"}, "KR/전라남도/보성군": {"lang": "ko", "lname": "Boseong-gun", "id": "data/KR/전라남도/보성군", "zip": "594|546", "key": "보성군"}, "KR/경기도/수원시/장안구": {"lang": "ko", "lname": "Jangan-gu", "id": "data/KR/경기도/수원시/장안구", "zip": "16[2-4]|440", "key": "장안구"}, "KR/전라남도/구례군": {"lang": "ko", "lname": "Gurye-gun", "id": "data/KR/전라남도/구례군", "zip": "576|542[\\-]8", "key": "구례군"}, "KR/경기도/용인시/기흥구": {"lang": "ko", "lname": "Giheung-gu", "id": "data/KR/경기도/용인시/기흥구", "zip": "1(?:6[89]|7[01])|446", "key": "기흥구"}}