{"TW/台中市/大安區": {"lang": "zh-hant", "lname": "Da'an District", "id": "data/TW/台中市/大安區", "zip": "439", "key": "大安區"}, "TW/基隆市/中正區": {"lang": "zh-hant", "lname": "Zhongzheng District", "id": "data/TW/基隆市/中正區", "zip": "202", "key": "中正區"}, "TW/新北市/烏來區": {"lang": "zh-hant", "lname": "Wulai District", "id": "data/TW/新北市/烏來區", "zip": "233", "key": "烏來區"}, "TW/屏東縣/東港鎮": {"lang": "zh-hant", "lname": "Donggang Township", "id": "data/TW/屏東縣/東港鎮", "zip": "928", "key": "東港鎮"}, "TW/屏東縣/獅子鄉": {"lang": "zh-hant", "lname": "Shizi Township", "id": "data/TW/屏東縣/獅子鄉", "zip": "943", "key": "獅子鄉"}, "TW/嘉義縣/竹崎鄉": {"lang": "zh-hant", "lname": "Zhuqi Township", "id": "data/TW/嘉義縣/竹崎鄉", "zip": "604", "key": "竹崎鄉"}, "TW/嘉義縣/中埔鄉": {"lang": "zh-hant", "lname": "Zhongpu Township", "id": "data/TW/嘉義縣/中埔鄉", "zip": "606", "key": "中埔鄉"}, "TW/台中市/東勢區": {"lang": "zh-hant", "lname": "Dongshi District", "id": "data/TW/台中市/東勢區", "zip": "423", "key": "東勢區"}, "TW/雲林縣/台西鄉": {"lang": "zh-hant", "lname": "Taixi Township", "id": "data/TW/雲林縣/台西鄉", "zip": "636", "key": "台西鄉"}, "TW/高雄市/彌陀區": {"lang": "zh-hant", "lname": "Mituo District", "id": "data/TW/高雄市/彌陀區", "zip": "827", "key": "彌陀區"}, "TW/屏東縣/牡丹鄉": {"lang": "zh-hant", "lname": "Mudan Township", "id": "data/TW/屏東縣/牡丹鄉", "zip": "945", "key": "牡丹鄉"}, "TW/台中市/新社區": {"lang": "zh-hant", "lname": "Xinshe District", "id": "data/TW/台中市/新社區", "zip": "426", "key": "新社區"}, "TW/高雄市/苓雅區": {"lang": "zh-hant", "lname": "Lingya District", "id": "data/TW/高雄市/苓雅區", "zip": "802", "key": "苓雅區"}, "TW/連江縣/莒光鄉": {"lang": "zh-hant", "lname": "Juguang Township", "id": "data/TW/連江縣/莒光鄉", "zip": "211", "key": "莒光鄉"}, "TW/台北市/大同區": {"lang": "zh-hant", "lname": "Datong District", "id": "data/TW/台北市/大同區", "zip": "103", "key": "大同區"}, "TW/新竹縣/竹北市": {"lang": "zh-hant", "lname": "Zhubei City", "id": "data/TW/新竹縣/竹北市", "zip": "302", "key": "竹北市"}, "TW/屏東縣/滿洲鄉": {"lang": "zh-hant", "lname": "Manzhou Township", "id": "data/TW/屏東縣/滿洲鄉", "zip": "947", "key": "滿洲鄉"}, "TW/高雄市/大樹區": {"lang": "zh-hant", "lname": "Dashu District", "id": "data/TW/高雄市/大樹區", "zip": "840", "key": "大樹區"}, "TW/苗栗縣": {"lang": "zh-hant", "sub_lnames": "Sanyi Township~Sanwan Township~Dahu Township~Gongguan Township~Zhunan Township~Xihu Township~Zhuolan Township~Nanzhuang Township~Houlong Township~Yuanli Township~Miaoli City~Tai'an Township~Tongxiao Township~Zaoqiao Township~Shitan Township~Tongluo Township~Toufen City~Touwu Township", "sub_zips": "367~352~364~363~350~368~369~353~356~358~360~365~357~361~354~366~351~362", "zip": "3[56]", "lname": "Miaoli County", "zipex": "350,369", "sub_keys": "三義鄉~三灣鄉~大湖鄉~公館鄉~竹南鎮~西湖鄉~卓蘭鎮~南庄鄉~後龍鎮~苑裡鎮~苗栗市~泰安鄉~通霄鎮~造橋鄉~獅潭鄉~銅鑼鄉~頭份市~頭屋鄉", "key": "苗栗縣", "id": "data/TW/苗栗縣", "isoid": "MIA"}, "TW/雲林縣/大埤鄉": {"lang": "zh-hant", "lname": "Dapi Township", "id": "data/TW/雲林縣/大埤鄉", "zip": "631", "key": "大埤鄉"}, "TW/新竹縣/五峰鄉": {"lang": "zh-hant", "lname": "Wufeng Township", "id": "data/TW/新竹縣/五峰鄉", "zip": "311", "key": "五峰鄉"}, "TW/嘉義縣/大林鎮": {"lang": "zh-hant", "lname": "Dalin Township", "id": "data/TW/嘉義縣/大林鎮", "zip": "622", "key": "大林鎮"}, "TW/台南市/左鎮區": {"lang": "zh-hant", "lname": "Zuozhen District", "id": "data/TW/台南市/左鎮區", "zip": "713", "key": "左鎮區"}, "TW/桃園市/大溪區": {"lang": "zh-hant", "lname": "Daxi District", "id": "data/TW/桃園市/大溪區", "zip": "335", "key": "大溪區"}, "TW/屏東縣/潮州鎮": {"lang": "zh-hant", "lname": "Chaozhou Township", "id": "data/TW/屏東縣/潮州鎮", "zip": "920", "key": "潮州鎮"}, "TW/高雄市/小港區": {"lang": "zh-hant", "lname": "Xiaogang District", "id": "data/TW/高雄市/小港區", "zip": "812", "key": "小港區"}, "TW/台南市/麻豆區": {"lang": "zh-hant", "lname": "Madou District", "id": "data/TW/台南市/麻豆區", "zip": "721", "key": "麻豆區"}, "TW/高雄市/茄萣區": {"lang": "zh-hant", "lname": "Jiading District", "id": "data/TW/高雄市/茄萣區", "zip": "852", "key": "茄萣區"}, "TW/嘉義縣/鹿草鄉": {"lang": "zh-hant", "lname": "Lucao Township", "id": "data/TW/嘉義縣/鹿草鄉", "zip": "611", "key": "鹿草鄉"}, "TW/澎湖縣/馬公市": {"lang": "zh-hant", "lname": "Magong City", "id": "data/TW/澎湖縣/馬公市", "zip": "880", "key": "馬公市"}, "TW/雲林縣/東勢鄉": {"lang": "zh-hant", "lname": "Dongshi Township", "id": "data/TW/雲林縣/東勢鄉", "zip": "635", "key": "東勢鄉"}, "TW/花蓮縣/富里鄉": {"lang": "zh-hant", "lname": "Fuli Township", "id": "data/TW/花蓮縣/富里鄉", "zip": "983", "key": "富里鄉"}, "TW/花蓮縣/鳳林鎮": {"lang": "zh-hant", "lname": "Fenglin Township", "id": "data/TW/花蓮縣/鳳林鎮", "zip": "975", "key": "鳳林鎮"}, "TW/高雄市/阿蓮區": {"lang": "zh-hant", "lname": "Alian District", "id": "data/TW/高雄市/阿蓮區", "zip": "822", "key": "阿蓮區"}, "TW/苗栗縣/苗栗市": {"lang": "zh-hant", "lname": "Miaoli City", "id": "data/TW/苗栗縣/苗栗市", "zip": "360", "key": "苗栗市"}, "TW/花蓮縣/壽豐鄉": {"lang": "zh-hant", "lname": "Shoufeng Township", "id": "data/TW/花蓮縣/壽豐鄉", "zip": "974", "key": "壽豐鄉"}, "TW/高雄市/南沙島": {"lang": "zh-hant", "lname": "Nansha Island", "id": "data/TW/高雄市/南沙島", "zip": "819", "key": "南沙島"}, "TW/基隆市/信義區": {"lang": "zh-hant", "lname": "Xinyi District", "id": "data/TW/基隆市/信義區", "zip": "201", "key": "信義區"}, "TW/屏東縣/南州鄉": {"lang": "zh-hant", "lname": "Nanzhou Township", "id": "data/TW/屏東縣/南州鄉", "zip": "926", "key": "南州鄉"}, "TW/台中市/太平區": {"lang": "zh-hant", "lname": "Taiping District", "id": "data/TW/台中市/太平區", "zip": "411", "key": "太平區"}, "TW/彰化縣/鹿港鎮": {"lang": "zh-hant", "lname": "Lukang Township", "id": "data/TW/彰化縣/鹿港鎮", "zip": "505", "key": "鹿港鎮"}, "TW/苗栗縣/三灣鄉": {"lang": "zh-hant", "lname": "Sanwan Township", "id": "data/TW/苗栗縣/三灣鄉", "zip": "352", "key": "三灣鄉"}, "TW/新北市/貢寮區": {"lang": "zh-hant", "lname": "Gongliao District", "id": "data/TW/新北市/貢寮區", "zip": "228", "key": "貢寮區"}, "TW/南投縣/中寮鄉": {"lang": "zh-hant", "lname": "Zhongliao Township", "id": "data/TW/南投縣/中寮鄉", "zip": "541", "key": "中寮鄉"}, "TW/台南市/七股區": {"lang": "zh-hant", "lname": "Qigu District", "id": "data/TW/台南市/七股區", "zip": "724", "key": "七股區"}, "TW/高雄市/杉林區": {"lang": "zh-hant", "lname": "Shanlin District", "id": "data/TW/高雄市/杉林區", "zip": "846", "key": "杉林區"}, "TW/苗栗縣/後龍鎮": {"lang": "zh-hant", "lname": "Houlong Township", "id": "data/TW/苗栗縣/後龍鎮", "zip": "356", "key": "後龍鎮"}, "TW/新北市/新店區": {"lang": "zh-hant", "lname": "Xindian District", "id": "data/TW/新北市/新店區", "zip": "231", "key": "新店區"}, "TW/雲林縣/古坑鄉": {"lang": "zh-hant", "lname": "Gukeng Township", "id": "data/TW/雲林縣/古坑鄉", "zip": "646", "key": "古坑鄉"}, "TW/桃園市/八德區": {"lang": "zh-hant", "lname": "Bade District", "id": "data/TW/桃園市/八德區", "zip": "334", "key": "八德區"}, "TW/花蓮縣/玉里鎮": {"lang": "zh-hant", "lname": "Yuli Township", "id": "data/TW/花蓮縣/玉里鎮", "zip": "981", "key": "玉里鎮"}, "TW/桃園市/觀音區": {"lang": "zh-hant", "lname": "Guanyin District", "id": "data/TW/桃園市/觀音區", "zip": "328", "key": "觀音區"}, "TW/台中市/大甲區": {"lang": "zh-hant", "lname": "Dajia District", "id": "data/TW/台中市/大甲區", "zip": "437", "key": "大甲區"}, "TW/台中市/西區": {"lang": "zh-hant", "lname": "West District", "id": "data/TW/台中市/西區", "zip": "403", "key": "西區"}, "TW/高雄市/梓官區": {"lang": "zh-hant", "lname": "Ziguan District", "id": "data/TW/高雄市/梓官區", "zip": "826", "key": "梓官區"}, "TW/高雄市/東沙島": {"lang": "zh-hant", "lname": "Dongsha Island", "id": "data/TW/高雄市/東沙島", "zip": "817", "key": "東沙島"}, "TW/台中市/神岡區": {"lang": "zh-hant", "lname": "Shengang District", "id": "data/TW/台中市/神岡區", "zip": "429", "key": "神岡區"}, "TW/高雄市/田寮區": {"lang": "zh-hant", "lname": "Tianliao District", "id": "data/TW/高雄市/田寮區", "zip": "823", "key": "田寮區"}, "TW/彰化縣/彰化市": {"lang": "zh-hant", "lname": "Changhua City", "id": "data/TW/彰化縣/彰化市", "zip": "500", "key": "彰化市"}, "TW/新竹縣/新埔鎮": {"lang": "zh-hant", "lname": "Xinpu Township", "id": "data/TW/新竹縣/新埔鎮", "zip": "305", "key": "新埔鎮"}, "TW/台南市/北區": {"lang": "zh-hant", "lname": "North District", "id": "data/TW/台南市/北區", "zip": "704", "key": "北區"}, "TW/高雄市/三民區": {"lang": "zh-hant", "lname": "Sanmin District", "id": "data/TW/高雄市/三民區", "zip": "807", "key": "三民區"}, "TW/新竹縣/橫山鄉": {"lang": "zh-hant", "lname": "Hengshan Township", "id": "data/TW/新竹縣/橫山鄉", "zip": "312", "key": "橫山鄉"}, "TW/彰化縣": {"lang": "zh-hant", "sub_lnames": "Ershui Township~Erlin Township~Dacun Township~Dacheng Township~Beidou Township~Yongjing Township~Tianzhong Township~Tianwei Township~Zhutang Township~Shengang Township~Xiushui Township~Hemei Township~Shetou Township~Fenyuan Township~Huatan Township~Fangyuan Township~Yuanlin City~Puxin Township~Puyan Township~Pitou Township~Lukang Township~Xizhou Township~Xihu Township~Changhua City~Fuxing Township~Xianxi Township", "sub_zips": "530~526~515~527~521~512~520~522~525~509~504~508~511~502~503~528~510~513~516~523~505~524~514~500~506~507", "zip": "5[0123]", "lname": "Changhua County", "zipex": "500,530", "sub_keys": "二水鄉~二林鎮~大村鄉~大城鄉~北斗鎮~永靖鄉~田中鎮~田尾鄉~竹塘鄉~伸港鄉~秀水鄉~和美鎮~社頭鄉~芬園鄉~花壇鄉~芳苑鄉~員林市~埔心鄉~埔鹽鄉~埤頭鄉~鹿港鎮~溪州鄉~溪湖鎮~彰化市~福興鄉~線西鄉", "key": "彰化縣", "id": "data/TW/彰化縣", "isoid": "CHA"}, "TW/彰化縣/二水鄉": {"lang": "zh-hant", "lname": "Ershui Township", "id": "data/TW/彰化縣/二水鄉", "zip": "530", "key": "二水鄉"}, "TW/台東縣/達仁鄉": {"lang": "zh-hant", "lname": "Daren Township", "id": "data/TW/台東縣/達仁鄉", "zip": "966", "key": "達仁鄉"}, "TW/台東縣/卑南鄉": {"lang": "zh-hant", "lname": "Beinan Township", "id": "data/TW/台東縣/卑南鄉", "zip": "954", "key": "卑南鄉"}, "TW/雲林縣/褒忠鄉": {"lang": "zh-hant", "lname": "Baozhong Township", "id": "data/TW/雲林縣/褒忠鄉", "zip": "634", "key": "褒忠鄉"}, "TW/台南市/柳營區": {"lang": "zh-hant", "lname": "Liuying District", "id": "data/TW/台南市/柳營區", "zip": "736", "key": "柳營區"}, "TW/新北市/平溪區": {"lang": "zh-hant", "lname": "Pingxi District", "id": "data/TW/新北市/平溪區", "zip": "226", "key": "平溪區"}, "TW/苗栗縣/銅鑼鄉": {"lang": "zh-hant", "lname": "Tongluo Township", "id": "data/TW/苗栗縣/銅鑼鄉", "zip": "366", "key": "銅鑼鄉"}, "TW/苗栗縣/三義鄉": {"lang": "zh-hant", "lname": "Sanyi Township", "id": "data/TW/苗栗縣/三義鄉", "zip": "367", "key": "三義鄉"}, "TW/新竹縣/新豐鄉": {"lang": "zh-hant", "lname": "Xinfeng Township", "id": "data/TW/新竹縣/新豐鄉", "zip": "304", "key": "新豐鄉"}, "TW/高雄市/前金區": {"lang": "zh-hant", "lname": "Qianjin District", "id": "data/TW/高雄市/前金區", "zip": "801", "key": "前金區"}, "TW/屏東縣/竹田鄉": {"lang": "zh-hant", "lname": "Zhutian Township", "id": "data/TW/屏東縣/竹田鄉", "zip": "911", "key": "竹田鄉"}, "TW/台南市/鹽水區": {"lang": "zh-hant", "lname": "Yanshui District", "id": "data/TW/台南市/鹽水區", "zip": "737", "key": "鹽水區"}, "TW/台南市/學甲區": {"lang": "zh-hant", "lname": "Xuejia District", "id": "data/TW/台南市/學甲區", "zip": "726", "key": "學甲區"}, "TW/南投縣/埔里鎮": {"lang": "zh-hant", "lname": "Puli Township", "id": "data/TW/南投縣/埔里鎮", "zip": "545", "key": "埔里鎮"}, "TW/嘉義縣/六腳鄉": {"lang": "zh-hant", "lname": "Liujiao Township", "id": "data/TW/嘉義縣/六腳鄉", "zip": "615", "key": "六腳鄉"}, "TW/台南市/西港區": {"lang": "zh-hant", "lname": "Xigang District", "id": "data/TW/台南市/西港區", "zip": "723", "key": "西港區"}, "TW/彰化縣/社頭鄉": {"lang": "zh-hant", "lname": "Shetou Township", "id": "data/TW/彰化縣/社頭鄉", "zip": "511", "key": "社頭鄉"}, "TW/花蓮縣/吉安鄉": {"lang": "zh-hant", "lname": "Ji'an Township", "id": "data/TW/花蓮縣/吉安鄉", "zip": "973", "key": "吉安鄉"}, "TW/嘉義縣/民雄鄉": {"lang": "zh-hant", "lname": "Minxiong Township", "id": "data/TW/嘉義縣/民雄鄉", "zip": "621", "key": "民雄鄉"}, "TW/台中市/潭子區": {"lang": "zh-hant", "lname": "Tanzi District", "id": "data/TW/台中市/潭子區", "zip": "427", "key": "潭子區"}, "TW/花蓮縣/萬榮鄉": {"lang": "zh-hant", "lname": "Wanrong Township", "id": "data/TW/花蓮縣/萬榮鄉", "zip": "979", "key": "萬榮鄉"}, "TW/屏東縣/琉球鄉": {"lang": "zh-hant", "lname": "Liuqiu Township", "id": "data/TW/屏東縣/琉球鄉", "zip": "929", "key": "琉球鄉"}, "TW/雲林縣/斗南鎮": {"lang": "zh-hant", "lname": "Dounan Township", "id": "data/TW/雲林縣/斗南鎮", "zip": "630", "key": "斗南鎮"}, "TW/新北市/雙溪區": {"lang": "zh-hant", "lname": "Shuangxi District", "id": "data/TW/新北市/雙溪區", "zip": "227", "key": "雙溪區"}, "TW/台中市/霧峰區": {"lang": "zh-hant", "lname": "Wufeng District", "id": "data/TW/台中市/霧峰區", "zip": "413", "key": "霧峰區"}, "TW/嘉義縣/阿里山鄉": {"lang": "zh-hant", "lname": "Alishan Township", "id": "data/TW/嘉義縣/阿里山鄉", "zip": "605", "key": "阿里山鄉"}, "TW/新竹縣/尖石鄉": {"lang": "zh-hant", "lname": "Jianshi Township", "id": "data/TW/新竹縣/尖石鄉", "zip": "313", "key": "尖石鄉"}, "TW/苗栗縣/造橋鄉": {"lang": "zh-hant", "lname": "Zaoqiao Township", "id": "data/TW/苗栗縣/造橋鄉", "zip": "361", "key": "造橋鄉"}, "TW/屏東縣/三地門鄉": {"lang": "zh-hant", "lname": "Sandimen Township", "id": "data/TW/屏東縣/三地門鄉", "zip": "901", "key": "三地門鄉"}, "TW/台中市/豐原區": {"lang": "zh-hant", "lname": "Fengyuan District", "id": "data/TW/台中市/豐原區", "zip": "420", "key": "豐原區"}, "TW/南投縣/名間鄉": {"lang": "zh-hant", "lname": "Mingjian Township", "id": "data/TW/南投縣/名間鄉", "zip": "551", "key": "名間鄉"}, "TW/桃園市/龍潭區": {"lang": "zh-hant", "lname": "Longtan District", "id": "data/TW/桃園市/龍潭區", "zip": "325", "key": "龍潭區"}, "TW/高雄市/甲仙區": {"lang": "zh-hant", "lname": "Jiaxian District", "id": "data/TW/高雄市/甲仙區", "zip": "847", "key": "甲仙區"}, "TW/新竹縣/湖口鄉": {"lang": "zh-hant", "lname": "Hukou Township", "id": "data/TW/新竹縣/湖口鄉", "zip": "303", "key": "湖口鄉"}, "TW/屏東縣/瑪家鄉": {"lang": "zh-hant", "lname": "Majia Township", "id": "data/TW/屏東縣/瑪家鄉", "zip": "903", "key": "瑪家鄉"}, "TW/台南市/善化區": {"lang": "zh-hant", "lname": "Shanhua District", "id": "data/TW/台南市/善化區", "zip": "741", "key": "善化區"}, "TW/金門縣/金湖鎮": {"lang": "zh-hant", "lname": "Jinhu Township", "id": "data/TW/金門縣/金湖鎮", "zip": "891", "key": "金湖鎮"}, "TW/基隆市/仁愛區": {"lang": "zh-hant", "lname": "Ren'ai District", "id": "data/TW/基隆市/仁愛區", "zip": "200", "key": "仁愛區"}, "TW/台中市/南區": {"lang": "zh-hant", "lname": "South District", "id": "data/TW/台中市/南區", "zip": "402", "key": "南區"}, "TW/澎湖縣/白沙鄉": {"lang": "zh-hant", "lname": "Baisha Township", "id": "data/TW/澎湖縣/白沙鄉", "zip": "884", "key": "白沙鄉"}, "TW/嘉義縣/溪口鄉": {"lang": "zh-hant", "lname": "Xikou Township", "id": "data/TW/嘉義縣/溪口鄉", "zip": "623", "key": "溪口鄉"}, "TW/雲林縣/麥寮鄉": {"lang": "zh-hant", "lname": "Mailiao Township", "id": "data/TW/雲林縣/麥寮鄉", "zip": "638", "key": "麥寮鄉"}, "TW/屏東縣/高樹鄉": {"lang": "zh-hant", "lname": "Gaoshu Township", "id": "data/TW/屏東縣/高樹鄉", "zip": "906", "key": "高樹鄉"}, "TW/嘉義縣/水上鄉": {"lang": "zh-hant", "lname": "Shuishang Township", "id": "data/TW/嘉義縣/水上鄉", "zip": "608", "key": "水上鄉"}, "TW/台南市/山上區": {"lang": "zh-hant", "lname": "Shanshang District", "id": "data/TW/台南市/山上區", "zip": "743", "key": "山上區"}, "TW/南投縣/仁愛鄉": {"lang": "zh-hant", "lname": "Ren'ai Township", "id": "data/TW/南投縣/仁愛鄉", "zip": "546", "key": "仁愛鄉"}, "TW/屏東縣/枋寮鄉": {"lang": "zh-hant", "lname": "Fangliao Township", "id": "data/TW/屏東縣/枋寮鄉", "zip": "940", "key": "枋寮鄉"}, "TW/桃園市/平鎮區": {"lang": "zh-hant", "lname": "Pingzhen District", "id": "data/TW/桃園市/平鎮區", "zip": "324", "key": "平鎮區"}, "TW/新竹縣/竹東鎮": {"lang": "zh-hant", "lname": "Zhudong Township", "id": "data/TW/新竹縣/竹東鎮", "zip": "310", "key": "竹東鎮"}, "TW/彰化縣/埔鹽鄉": {"lang": "zh-hant", "lname": "Puyan Township", "id": "data/TW/彰化縣/埔鹽鄉", "zip": "516", "key": "埔鹽鄉"}, "TW/新竹縣/芎林鄉": {"lang": "zh-hant", "lname": "Qionglin Township", "id": "data/TW/新竹縣/芎林鄉", "zip": "307", "key": "芎林鄉"}, "TW/金門縣/金城鎮": {"lang": "zh-hant", "lname": "Jincheng Township", "id": "data/TW/金門縣/金城鎮", "zip": "893", "key": "金城鎮"}, "TW/高雄市/前鎮區": {"lang": "zh-hant", "lname": "Qianzhen District", "id": "data/TW/高雄市/前鎮區", "zip": "806", "key": "前鎮區"}, "TW/桃園市": {"lang": "zh-hant", "sub_lnames": "Bade District~Dayuan District~Daxi District~Zhongli District~Pingzhen District~Taoyuan District~Fuxing District~Xinwu District~Yangmei District~Longtan District~Guishan District~Luzhu District~Guanyin District", "sub_zips": "334~337~335~320~324~330~336~327~326~325~333~338~328", "zip": "3[23]", "lname": "Taoyuan City", "zipex": "320,338", "sub_keys": "八德區~大園區~大溪區~中壢區~平鎮區~桃園區~復興區~新屋區~楊梅區~龍潭區~龜山區~蘆竹區~觀音區", "key": "桃園市", "id": "data/TW/桃園市", "isoid": "TAO"}, "TW/高雄市/鼓山區": {"lang": "zh-hant", "lname": "Gushan District", "id": "data/TW/高雄市/鼓山區", "zip": "804", "key": "鼓山區"}, "TW/台東縣/鹿野鄉": {"lang": "zh-hant", "lname": "Luye Township", "id": "data/TW/台東縣/鹿野鄉", "zip": "955", "key": "鹿野鄉"}, "TW/雲林縣/西螺鎮": {"lang": "zh-hant", "lname": "Xiluo Township", "id": "data/TW/雲林縣/西螺鎮", "zip": "648", "key": "西螺鎮"}, "TW/高雄市/六龜區": {"lang": "zh-hant", "lname": "Liugui District", "id": "data/TW/高雄市/六龜區", "zip": "844", "key": "六龜區"}, "TW/台東縣/金峰鄉": {"lang": "zh-hant", "lname": "Jinfeng Township", "id": "data/TW/台東縣/金峰鄉", "zip": "964", "key": "金峰鄉"}, "TW/苗栗縣/西湖鄉": {"lang": "zh-hant", "lname": "Xihu Township", "id": "data/TW/苗栗縣/西湖鄉", "zip": "368", "key": "西湖鄉"}, "TW/台南市/將軍區": {"lang": "zh-hant", "lname": "Jiangjun District", "id": "data/TW/台南市/將軍區", "zip": "725", "key": "將軍區"}, "TW/新北市/瑞芳區": {"lang": "zh-hant", "lname": "Ruifang District", "id": "data/TW/新北市/瑞芳區", "zip": "224", "key": "瑞芳區"}, "TW/嘉義市/東區": {"lang": "zh-hant", "lname": "East District", "id": "data/TW/嘉義市/東區", "key": "東區"}, "TW/高雄市/旗山區": {"lang": "zh-hant", "lname": "Qishan District", "id": "data/TW/高雄市/旗山區", "zip": "842", "key": "旗山區"}, "TW/新竹縣/北埔鄉": {"lang": "zh-hant", "lname": "Beipu Township", "id": "data/TW/新竹縣/北埔鄉", "zip": "314", "key": "北埔鄉"}, "TW/新北市/新莊區": {"lang": "zh-hant", "lname": "Xinzhuang District", "id": "data/TW/新北市/新莊區", "zip": "242", "key": "新莊區"}, "TW/彰化縣/花壇鄉": {"lang": "zh-hant", "lname": "Huatan Township", "id": "data/TW/彰化縣/花壇鄉", "zip": "503", "key": "花壇鄉"}, "TW/屏東縣/鹽埔鄉": {"lang": "zh-hant", "lname": "Yanpu Township", "id": "data/TW/屏東縣/鹽埔鄉", "zip": "907", "key": "鹽埔鄉"}, "TW/基隆市": {"lang": "zh-hant", "sub_lnames": "Qidu District~Zhongshan District~Zhongzheng District~Ren'ai District~Anle District~Xinyi District~Nuannuan District", "sub_zips": "206~203~202~200~204~201~205", "zip": "20[0-6]", "lname": "Keelung City", "zipex": "200,206", "sub_keys": "七堵區~中山區~中正區~仁愛區~安樂區~信義區~暖暖區", "key": "基隆市", "id": "data/TW/基隆市", "isoid": "KEE"}, "TW/南投縣/魚池鄉": {"lang": "zh-hant", "lname": "Yuchi Township", "id": "data/TW/南投縣/魚池鄉", "zip": "555", "key": "魚池鄉"}, "TW/高雄市/左營區": {"lang": "zh-hant", "lname": "Zuoying District", "id": "data/TW/高雄市/左營區", "zip": "813", "key": "左營區"}, "TW/澎湖縣/望安鄉": {"lang": "zh-hant", "lname": "Wang'an Township", "id": "data/TW/澎湖縣/望安鄉", "zip": "882", "key": "望安鄉"}, "TW/嘉義縣/新港鄉": {"lang": "zh-hant", "lname": "Xingang Township", "id": "data/TW/嘉義縣/新港鄉", "zip": "616", "key": "新港鄉"}, "TW/雲林縣/斗六市": {"lang": "zh-hant", "lname": "Douliu City", "id": "data/TW/雲林縣/斗六市", "zip": "640", "key": "斗六市"}, "TW/苗栗縣/大湖鄉": {"lang": "zh-hant", "lname": "Dahu Township", "id": "data/TW/苗栗縣/大湖鄉", "zip": "364", "key": "大湖鄉"}, "TW/屏東縣/內埔鄉": {"lang": "zh-hant", "lname": "Neipu Township", "id": "data/TW/屏東縣/內埔鄉", "zip": "912", "key": "內埔鄉"}, "TW/台北市/內湖區": {"lang": "zh-hant", "lname": "Neihu District", "id": "data/TW/台北市/內湖區", "zip": "114", "key": "內湖區"}, "TW/高雄市/仁武區": {"lang": "zh-hant", "lname": "Renwu District", "id": "data/TW/高雄市/仁武區", "zip": "814", "key": "仁武區"}, "TW/彰化縣/永靖鄉": {"lang": "zh-hant", "lname": "Yongjing Township", "id": "data/TW/彰化縣/永靖鄉", "zip": "512", "key": "永靖鄉"}, "TW/嘉義市": {"lang": "zh-hant", "sub_lnames": "West District~East District", "isoid": "CYI", "zip": "600", "lname": "Chiayi City", "sub_keys": "西區~東區", "key": "嘉義市", "id": "data/TW/嘉義市"}, "TW/台北市": {"lang": "zh-hant", "sub_lnames": "Shilin District~Datong District~Da'an District~Zhongshan District~Zhongzheng District~Neihu District~Wenshan District~Beitou District~Songshan District~Xinyi District~Nangang District~Wanhua District", "sub_zips": "111~103~106~104~100~114~116~112~105~110~115~108", "zip": "1[01]", "lname": "Taipei City", "zipex": "100,119", "sub_keys": "士林區~大同區~大安區~中山區~中正區~內湖區~文山區~北投區~松山區~信義區~南港區~萬華區", "key": "台北市", "id": "data/TW/台北市", "isoid": "TPE"}, "TW/苗栗縣/通霄鎮": {"lang": "zh-hant", "lname": "Tongxiao Township", "id": "data/TW/苗栗縣/通霄鎮", "zip": "357", "key": "通霄鎮"}, "TW/台北市/北投區": {"lang": "zh-hant", "lname": "Beitou District", "id": "data/TW/台北市/北投區", "zip": "112", "key": "北投區"}, "TW/台南市/後壁區": {"lang": "zh-hant", "lname": "Houbi District", "id": "data/TW/台南市/後壁區", "zip": "731", "key": "後壁區"}, "TW/苗栗縣/獅潭鄉": {"lang": "zh-hant", "lname": "Shitan Township", "id": "data/TW/苗栗縣/獅潭鄉", "zip": "354", "key": "獅潭鄉"}, "TW/台北市/士林區": {"lang": "zh-hant", "lname": "Shilin District", "id": "data/TW/台北市/士林區", "zip": "111", "key": "士林區"}, "TW/嘉義縣/大埔鄉": {"lang": "zh-hant", "lname": "Dapu Township", "id": "data/TW/嘉義縣/大埔鄉", "zip": "607", "key": "大埔鄉"}, "TW/高雄市/內門區": {"lang": "zh-hant", "lname": "Neimen District", "id": "data/TW/高雄市/內門區", "zip": "845", "key": "內門區"}, "TW/屏東縣/麟洛鄉": {"lang": "zh-hant", "lname": "Linluo Township", "id": "data/TW/屏東縣/麟洛鄉", "zip": "909", "key": "麟洛鄉"}, "TW/台東縣/大武鄉": {"lang": "zh-hant", "lname": "Dawu Township", "id": "data/TW/台東縣/大武鄉", "zip": "965", "key": "大武鄉"}, "TW/台北市/文山區": {"lang": "zh-hant", "lname": "Wenshan District", "id": "data/TW/台北市/文山區", "zip": "116", "key": "文山區"}, "TW/彰化縣/二林鎮": {"lang": "zh-hant", "lname": "Erlin Township", "id": "data/TW/彰化縣/二林鎮", "zip": "526", "key": "二林鎮"}, "TW/新北市/板橋區": {"lang": "zh-hant", "lname": "Banqiao District", "id": "data/TW/新北市/板橋區", "zip": "220", "key": "板橋區"}, "TW/雲林縣/四湖鄉": {"lang": "zh-hant", "lname": "Sihu Township", "id": "data/TW/雲林縣/四湖鄉", "zip": "654", "key": "四湖鄉"}, "TW/屏東縣/枋山鄉": {"lang": "zh-hant", "lname": "Fangshan Township", "id": "data/TW/屏東縣/枋山鄉", "zip": "941", "key": "枋山鄉"}, "TW/連江縣/東引鄉": {"lang": "zh-hant", "lname": "Dongyin Township", "id": "data/TW/連江縣/東引鄉", "zip": "212", "key": "東引鄉"}, "TW/宜蘭縣/宜蘭市": {"lang": "zh-hant", "lname": "Yilan City", "id": "data/TW/宜蘭縣/宜蘭市", "zip": "260", "key": "宜蘭市"}, "TW/台中市/東區": {"lang": "zh-hant", "lname": "East District", "id": "data/TW/台中市/東區", "zip": "401", "key": "東區"}, "TW/澎湖縣/湖西鄉": {"lang": "zh-hant", "lname": "Huxi Township", "id": "data/TW/澎湖縣/湖西鄉", "zip": "885", "key": "湖西鄉"}, "TW/花蓮縣/瑞穗鄉": {"lang": "zh-hant", "lname": "Ruisui Township", "id": "data/TW/花蓮縣/瑞穗鄉", "zip": "978", "key": "瑞穗鄉"}, "TW/宜蘭縣/礁溪鄉": {"lang": "zh-hant", "lname": "Jiaoxi Township", "id": "data/TW/宜蘭縣/礁溪鄉", "zip": "262", "key": "礁溪鄉"}, "TW/嘉義市/西區": {"lang": "zh-hant", "lname": "West District", "id": "data/TW/嘉義市/西區", "key": "西區"}, "TW/台東縣/台東市": {"lang": "zh-hant", "lname": "Taitung City", "id": "data/TW/台東縣/台東市", "zip": "950", "key": "台東市"}, "TW/雲林縣/元長鄉": {"lang": "zh-hant", "lname": "Yuanchang Township", "id": "data/TW/雲林縣/元長鄉", "zip": "655", "key": "元長鄉"}, "TW/新北市/林口區": {"lang": "zh-hant", "lname": "Linkou District", "id": "data/TW/新北市/林口區", "zip": "244", "key": "林口區"}, "TW/屏東縣/里港鄉": {"lang": "zh-hant", "lname": "Ligang Township", "id": "data/TW/屏東縣/里港鄉", "zip": "905", "key": "里港鄉"}, "TW/屏東縣/九如鄉": {"lang": "zh-hant", "lname": "Jiuru Township", "id": "data/TW/屏東縣/九如鄉", "zip": "904", "key": "九如鄉"}, "TW/台東縣/東河鄉": {"lang": "zh-hant", "lname": "Donghe Township", "id": "data/TW/台東縣/東河鄉", "zip": "959", "key": "東河鄉"}, "TW/花蓮縣/卓溪鄉": {"lang": "zh-hant", "lname": "Zhuoxi Township", "id": "data/TW/花蓮縣/卓溪鄉", "zip": "982", "key": "卓溪鄉"}, "TW/高雄市/燕巢區": {"lang": "zh-hant", "lname": "Yanchao District", "id": "data/TW/高雄市/燕巢區", "zip": "824", "key": "燕巢區"}, "TW/宜蘭縣/頭城鎮": {"lang": "zh-hant", "lname": "Toucheng Township", "id": "data/TW/宜蘭縣/頭城鎮", "zip": "261", "key": "頭城鎮"}, "TW/台中市/北區": {"lang": "zh-hant", "lname": "North District", "id": "data/TW/台中市/北區", "zip": "404", "key": "北區"}, "TW/高雄市/鹽埕區": {"lang": "zh-hant", "lname": "Yancheng District", "id": "data/TW/高雄市/鹽埕區", "zip": "803", "key": "鹽埕區"}, "TW/高雄市/楠梓區": {"lang": "zh-hant", "lname": "Nanzi District", "id": "data/TW/高雄市/楠梓區", "zip": "811", "key": "楠梓區"}, "TW/宜蘭縣/三星鄉": {"lang": "zh-hant", "lname": "Sanxing Township", "id": "data/TW/宜蘭縣/三星鄉", "zip": "266", "key": "三星鄉"}, "TW/新北市/永和區": {"lang": "zh-hant", "lname": "Yonghe District", "id": "data/TW/新北市/永和區", "zip": "234", "key": "永和區"}, "TW/花蓮縣/豐濱鄉": {"lang": "zh-hant", "lname": "Fengbin Township", "id": "data/TW/花蓮縣/豐濱鄉", "zip": "977", "key": "豐濱鄉"}, "TW/台中市": {"lang": "zh-hant", "sub_lnames": "Dajia District~Da'an District~Dadu District~Dali District~Daya District~Central District~Taiping District~Beitun District~North District~Waipu District~Shigang District~Houli District~Xitun District~West District~Shalu District~Heping District~East District~Dongshi District~Nantun District~South District~Wuri District~Shengang District~Wuqi District~Qingshui District~Xinshe District~Tanzi District~Longjing District~Fengyuan District~Wufeng District", "sub_zips": "437~439~432~412~428~400~411~406~404~438~422~421~407~403~433~424~401~423~408~402~414~429~435~436~426~427~434~420~413", "zip": "4[0-3]", "lname": "Taichung City", "zipex": "400,408:411,439", "sub_keys": "大甲區~大安區~大肚區~大里區~大雅區~中區~太平區~北屯區~北區~外埔區~石岡區~后里區~西屯區~西區~沙鹿區~和平區~東區~東勢區~南屯區~南區~烏日區~神岡區~梧棲區~清水區~新社區~潭子區~龍井區~豐原區~霧峰區", "key": "台中市", "id": "data/TW/台中市", "isoid": "TXG"}, "TW/台東縣/成功鎮": {"lang": "zh-hant", "lname": "Chenggong Township", "id": "data/TW/台東縣/成功鎮", "zip": "961", "key": "成功鎮"}, "TW/台中市/烏日區": {"lang": "zh-hant", "lname": "Wuri District", "id": "data/TW/台中市/烏日區", "zip": "414", "key": "烏日區"}, "TW/台南市/安平區": {"lang": "zh-hant", "lname": "Anping District", "id": "data/TW/台南市/安平區", "zip": "708", "key": "安平區"}, "TW/高雄市/大寮區": {"lang": "zh-hant", "lname": "Daliao District", "id": "data/TW/高雄市/大寮區", "zip": "831", "key": "大寮區"}, "TW/雲林縣": {"lang": "zh-hant", "sub_lnames": "Erlun Township~Kouhu Township~Tuku Township~Dapi Township~Yuanchang Township~Douliu City~Dounan Township~Shuilin Township~Beigang Township~Gukeng Township~Taixi Township~Sihu Township~Xiluo Township~Dongshi Township~Linnei Township~Huwei Township~Lunbei Township~Mailiao Township~Citong Township~Baozhong Township", "sub_zips": "649~653~633~631~655~640~630~652~651~646~636~654~648~635~643~632~637~638~647~634", "zip": "6[3-5]", "lname": "Yunlin County", "zipex": "630,655", "sub_keys": "二崙鄉~口湖鄉~土庫鎮~大埤鄉~元長鄉~斗六市~斗南鎮~水林鄉~北港鎮~古坑鄉~台西鄉~四湖鄉~西螺鎮~東勢鄉~林內鄉~虎尾鎮~崙背鄉~麥寮鄉~莿桐鄉~褒忠鄉", "key": "雲林縣", "id": "data/TW/雲林縣", "isoid": "YUN"}, "TW/台南市/白河區": {"lang": "zh-hant", "lname": "Baihe District", "id": "data/TW/台南市/白河區", "zip": "732", "key": "白河區"}, "TW/基隆市/安樂區": {"lang": "zh-hant", "lname": "Anle District", "id": "data/TW/基隆市/安樂區", "zip": "204", "key": "安樂區"}, "TW/雲林縣/莿桐鄉": {"lang": "zh-hant", "lname": "Citong Township", "id": "data/TW/雲林縣/莿桐鄉", "zip": "647", "key": "莿桐鄉"}, "TW/台東縣/海端鄉": {"lang": "zh-hant", "lname": "Haiduan Township", "id": "data/TW/台東縣/海端鄉", "zip": "957", "key": "海端鄉"}, "TW/嘉義縣/布袋鎮": {"lang": "zh-hant", "lname": "Budai Township", "id": "data/TW/嘉義縣/布袋鎮", "zip": "625", "key": "布袋鎮"}, "TW/高雄市": {"lang": "zh-hant", "sub_lnames": "Sanmin District~Dashe District~Daliao District~Dashu District~Xiaogang District~Renwu District~Neimen District~Liugui District~Zuoying District~Yong'an District~Tianliao District~Jiaxian District~Shanlin District~Namaxia District~Gangshan District~Dongsha Island~Linyuan District~Alian District~Qianjin District~Qianzhen District~Nansha Island~Meinong District~Lingya District~Maolin District~Jiading District~Taoyuan District~Ziguan District~Niaosong District~Hunei District~Xinxing District~Nanzi District~Luzhu District~Gushan District~Qishan District~Qijin District~Fengshan District~Qiaotou District~Yanchao District~Mituo District~Yancheng District", "sub_zips": "807~815~831~840~812~814~845~844~813~828~823~847~846~849~820~817~832~822~801~806~819~843~802~851~852~848~826~833~829~800~811~821~804~842~805~830~825~824~827~803", "zip": "8[02-5]|81[1-579]", "lname": "Kaohsiung City", "zipex": "800,815:817,852", "sub_keys": "三民區~大社區~大寮區~大樹區~小港區~仁武區~內門區~六龜區~左營區~永安區~田寮區~甲仙區~杉林區~那瑪夏區~岡山區~東沙島~林園區~阿蓮區~前金區~前鎮區~南沙島~美濃區~苓雅區~茂林區~茄萣區~桃源區~梓官區~鳥松區~湖內區~新興區~楠梓區~路竹區~鼓山區~旗山區~旗津區~鳳山區~橋頭區~燕巢區~彌陀區~鹽埕區", "key": "高雄市", "id": "data/TW/高雄市", "isoid": "KHH"}, "TW/台南市/新營區": {"lang": "zh-hant", "lname": "Xinying District", "id": "data/TW/台南市/新營區", "zip": "730", "key": "新營區"}, "TW/彰化縣/埔心鄉": {"lang": "zh-hant", "lname": "Puxin Township", "id": "data/TW/彰化縣/埔心鄉", "zip": "513", "key": "埔心鄉"}, "TW/金門縣/金沙鎮": {"lang": "zh-hant", "lname": "Jinsha Township", "id": "data/TW/金門縣/金沙鎮", "zip": "890", "key": "金沙鎮"}, "TW/雲林縣/林內鄉": {"lang": "zh-hant", "lname": "Linnei Township", "id": "data/TW/雲林縣/林內鄉", "zip": "643", "key": "林內鄉"}, "TW/新北市/中和區": {"lang": "zh-hant", "lname": "Zhonghe District", "id": "data/TW/新北市/中和區", "zip": "235", "key": "中和區"}, "TW/南投縣/南投市": {"lang": "zh-hant", "lname": "Nantou City", "id": "data/TW/南投縣/南投市", "zip": "540", "key": "南投市"}, "TW/嘉義縣/義竹鄉": {"lang": "zh-hant", "lname": "Yizhu Township", "id": "data/TW/嘉義縣/義竹鄉", "zip": "624", "key": "義竹鄉"}, "TW/新北市/三重區": {"lang": "zh-hant", "lname": "Sanchong District", "id": "data/TW/新北市/三重區", "zip": "241", "key": "三重區"}, "TW/屏東縣/長治鄉": {"lang": "zh-hant", "lname": "Changzhi Township", "id": "data/TW/屏東縣/長治鄉", "zip": "908", "key": "長治鄉"}, "TW/台東縣/太麻里鄉": {"lang": "zh-hant", "lname": "Taimali Township", "id": "data/TW/台東縣/太麻里鄉", "zip": "963", "key": "太麻里鄉"}, "TW/新北市/五股區": {"lang": "zh-hant", "lname": "Wugu District", "id": "data/TW/新北市/五股區", "zip": "248", "key": "五股區"}, "TW/台中市/和平區": {"lang": "zh-hant", "lname": "Heping District", "id": "data/TW/台中市/和平區", "zip": "424", "key": "和平區"}, "TW/新北市/石門區": {"lang": "zh-hant", "lname": "Shimen District", "id": "data/TW/新北市/石門區", "zip": "253", "key": "石門區"}, "TW/桃園市/大園區": {"lang": "zh-hant", "lname": "Dayuan District", "id": "data/TW/桃園市/大園區", "zip": "337", "key": "大園區"}, "TW/台南市/玉井區": {"lang": "zh-hant", "lname": "Yujing District", "id": "data/TW/台南市/玉井區", "zip": "714", "key": "玉井區"}, "TW/南投縣/國姓鄉": {"lang": "zh-hant", "lname": "Guoxing Township", "id": "data/TW/南投縣/國姓鄉", "zip": "544", "key": "國姓鄉"}, "TW/桃園市/桃園區": {"lang": "zh-hant", "lname": "Taoyuan District", "id": "data/TW/桃園市/桃園區", "zip": "330", "key": "桃園區"}, "TW/新北市": {"lang": "zh-hant", "sub_lnames": "Bali District~Sanzhi District~Sanchong District~Sanxia District~Tucheng District~Zhonghe District~Wugu District~Pingxi District~Yonghe District~Shimen District~Shiding District~Xizhi District~Pinglin District~Banqiao District~Linkou District~Jinshan District~Taishan District~Wulai District~Gongliao District~Tamsui District~Shenkeng District~Xindian District~Xinzhuang District~Ruifang District~Wanli District~Shulin District~Shuangxi District~Luzhou District~Yingge District", "sub_zips": "249~252~241~237~236~235~248~226~234~253~223~221~232~220~244~208~243~233~228~251~222~231~242~224~207~238~227~247~239", "zip": "20[78]|2[2345]", "lname": "New Taipei City", "zipex": "207,208:220,253", "sub_keys": "八里區~三芝區~三重區~三峽區~土城區~中和區~五股區~平溪區~永和區~石門區~石碇區~汐止區~坪林區~板橋區~林口區~金山區~泰山區~烏來區~貢寮區~淡水區~深坑區~新店區~新莊區~瑞芳區~萬里區~樹林區~雙溪區~蘆洲區~鶯歌區", "key": "新北市", "id": "data/TW/新北市", "isoid": "TPQ"}, "TW/台東縣/蘭嶼鄉": {"lang": "zh-hant", "lname": "Lanyu Township", "id": "data/TW/台東縣/蘭嶼鄉", "zip": "952", "key": "蘭嶼鄉"}, "TW/新北市/蘆洲區": {"lang": "zh-hant", "lname": "Luzhou District", "id": "data/TW/新北市/蘆洲區", "zip": "247", "key": "蘆洲區"}, "TW/基隆市/暖暖區": {"lang": "zh-hant", "lname": "Nuannuan District", "id": "data/TW/基隆市/暖暖區", "zip": "205", "key": "暖暖區"}, "TW/高雄市/岡山區": {"lang": "zh-hant", "lname": "Gangshan District", "id": "data/TW/高雄市/岡山區", "zip": "820", "key": "岡山區"}, "TW/新北市/淡水區": {"lang": "zh-hant", "lname": "Tamsui District", "id": "data/TW/新北市/淡水區", "zip": "251", "key": "淡水區"}, "TW/雲林縣/口湖鄉": {"lang": "zh-hant", "lname": "Kouhu Township", "id": "data/TW/雲林縣/口湖鄉", "zip": "653", "key": "口湖鄉"}, "TW/苗栗縣/竹南鎮": {"lang": "zh-hant", "lname": "Zhunan Township", "id": "data/TW/苗栗縣/竹南鎮", "zip": "350", "key": "竹南鎮"}, "TW/新北市/深坑區": {"lang": "zh-hant", "lname": "Shenkeng District", "id": "data/TW/新北市/深坑區", "zip": "222", "key": "深坑區"}, "TW/新北市/坪林區": {"lang": "zh-hant", "lname": "Pinglin District", "id": "data/TW/新北市/坪林區", "zip": "232", "key": "坪林區"}, "TW/台南市": {"lang": "zh-hant", "sub_lnames": "Qigu District~Xiaying District~Danei District~Shanshang District~West Central District~Rende District~Liujia District~Beimen District~North District~Zuozhen District~Yongkang District~Yujing District~Baihe District~Anping District~Anding District~Annan District~Xigang District~Jiali District~Guantian District~Dongshan District~East District~Nanhua District~South District~Houbi District~Liuying District~Jiangjun District~Madou District~Shanhua District~Xinhua District~Xinshi District~Xinying District~Nanxi District~Xuejia District~Longqi District~Guiren District~Guanmiao District~Yanshui District", "sub_zips": "724~735~742~743~700~717~734~727~704~713~710~714~732~708~745~709~723~722~720~733~701~716~702~731~736~725~721~741~712~744~730~715~726~719~711~718~737", "zip": "7[0-4]", "lname": "Tainan City", "zipex": "700,745", "sub_keys": "七股區~下營區~大內區~山上區~中西區~仁德區~六甲區~北門區~北區~左鎮區~永康區~玉井區~白河區~安平區~安定區~安南區~西港區~佳里區~官田區~東山區~東區~南化區~南區~後壁區~柳營區~將軍區~麻豆區~善化區~新化區~新市區~新營區~楠西區~學甲區~龍崎區~歸仁區~關廟區~鹽水區", "key": "台南市", "id": "data/TW/台南市", "isoid": "TNN"}, "TW/新北市/石碇區": {"lang": "zh-hant", "lname": "Shiding District", "id": "data/TW/新北市/石碇區", "zip": "223", "key": "石碇區"}, "TW/台中市/梧棲區": {"lang": "zh-hant", "lname": "Wuqi District", "id": "data/TW/台中市/梧棲區", "zip": "435", "key": "梧棲區"}, "TW/台中市/沙鹿區": {"lang": "zh-hant", "lname": "Shalu District", "id": "data/TW/台中市/沙鹿區", "zip": "433", "key": "沙鹿區"}, "TW/台南市/永康區": {"lang": "zh-hant", "lname": "Yongkang District", "id": "data/TW/台南市/永康區", "zip": "710", "key": "永康區"}, "TW/新北市/土城區": {"lang": "zh-hant", "lname": "Tucheng District", "id": "data/TW/新北市/土城區", "zip": "236", "key": "土城區"}, "TW/花蓮縣/花蓮市": {"lang": "zh-hant", "lname": "Hualien City", "id": "data/TW/花蓮縣/花蓮市", "zip": "970", "key": "花蓮市"}, "TW/台南市/安定區": {"lang": "zh-hant", "lname": "Anding District", "id": "data/TW/台南市/安定區", "zip": "745", "key": "安定區"}, "TW/高雄市/旗津區": {"lang": "zh-hant", "lname": "Qijin District", "id": "data/TW/高雄市/旗津區", "zip": "805", "key": "旗津區"}, "TW/彰化縣/伸港鄉": {"lang": "zh-hant", "lname": "Shengang Township", "id": "data/TW/彰化縣/伸港鄉", "zip": "509", "key": "伸港鄉"}, "TW/台南市/北門區": {"lang": "zh-hant", "lname": "Beimen District", "id": "data/TW/台南市/北門區", "zip": "727", "key": "北門區"}, "TW/台南市/仁德區": {"lang": "zh-hant", "lname": "Rende District", "id": "data/TW/台南市/仁德區", "zip": "717", "key": "仁德區"}, "TW/嘉義縣/太保市": {"lang": "zh-hant", "lname": "Taibao City", "id": "data/TW/嘉義縣/太保市", "zip": "612", "key": "太保市"}, "TW/屏東縣/崁頂鄉": {"lang": "zh-hant", "lname": "Kanding Township", "id": "data/TW/屏東縣/崁頂鄉", "zip": "924", "key": "崁頂鄉"}, "TW/彰化縣/田中鎮": {"lang": "zh-hant", "lname": "Tianzhong Township", "id": "data/TW/彰化縣/田中鎮", "zip": "520", "key": "田中鎮"}, "TW/高雄市/美濃區": {"lang": "zh-hant", "lname": "Meinong District", "id": "data/TW/高雄市/美濃區", "zip": "843", "key": "美濃區"}, "TW/宜蘭縣/員山鄉": {"lang": "zh-hant", "lname": "Yuanshan Township", "id": "data/TW/宜蘭縣/員山鄉", "zip": "264", "key": "員山鄉"}, "TW/台南市/下營區": {"lang": "zh-hant", "lname": "Xiaying District", "id": "data/TW/台南市/下營區", "zip": "735", "key": "下營區"}, "TW/南投縣/信義鄉": {"lang": "zh-hant", "lname": "Xinyi Township", "id": "data/TW/南投縣/信義鄉", "zip": "556", "key": "信義鄉"}, "TW/台南市/官田區": {"lang": "zh-hant", "lname": "Guantian District", "id": "data/TW/台南市/官田區", "zip": "720", "key": "官田區"}, "TW/宜蘭縣/五結鄉": {"lang": "zh-hant", "lname": "Wujie Township", "id": "data/TW/宜蘭縣/五結鄉", "zip": "268", "key": "五結鄉"}, "TW/宜蘭縣/壯圍鄉": {"lang": "zh-hant", "lname": "Zhuangwei Township", "id": "data/TW/宜蘭縣/壯圍鄉", "zip": "263", "key": "壯圍鄉"}, "TW/彰化縣/溪湖鎮": {"lang": "zh-hant", "lname": "Xihu Township", "id": "data/TW/彰化縣/溪湖鎮", "zip": "514", "key": "溪湖鎮"}, "TW/宜蘭縣": {"lang": "zh-hant", "sub_lnames": "Sanxing Township~Datong Township~Wujie Township~Dongshan Township~Zhuangwei Township~Yilan City~Nan'ao Township~Yuanshan Township~Toucheng Township~Jiaoxi Township~Luodong Township~Su'ao Township", "sub_zips": "266~267~268~269~263~260~272~264~261~262~265~270", "zip": "2[67]", "lname": "Yilan County", "zipex": "260,272", "sub_keys": "三星鄉~大同鄉~五結鄉~冬山鄉~壯圍鄉~宜蘭市~南澳鄉~員山鄉~頭城鎮~礁溪鄉~羅東鎮~蘇澳鎮", "key": "宜蘭縣", "id": "data/TW/宜蘭縣", "isoid": "ILA"}, "TW/台東縣/關山鎮": {"lang": "zh-hant", "lname": "Guanshan Township", "id": "data/TW/台東縣/關山鎮", "zip": "956", "key": "關山鎮"}, "TW/台北市/松山區": {"lang": "zh-hant", "lname": "Songshan District", "id": "data/TW/台北市/松山區", "zip": "105", "key": "松山區"}, "TW/高雄市/新興區": {"lang": "zh-hant", "lname": "Xinxing District", "id": "data/TW/高雄市/新興區", "zip": "800", "key": "新興區"}, "TW/高雄市/鳥松區": {"lang": "zh-hant", "lname": "Niaosong District", "id": "data/TW/高雄市/鳥松區", "zip": "833", "key": "鳥松區"}, "TW/新北市/萬里區": {"lang": "zh-hant", "lname": "Wanli District", "id": "data/TW/新北市/萬里區", "zip": "207", "key": "萬里區"}, "TW/澎湖縣/西嶼鄉": {"lang": "zh-hant", "lname": "Xiyu Township", "id": "data/TW/澎湖縣/西嶼鄉", "zip": "881", "key": "西嶼鄉"}, "TW/連江縣": {"lang": "zh-hant", "sub_lnames": "Beigan Township~Dongyin Township~Nangan Township~Juguang Township", "sub_zips": "210~212~209~211", "zip": "209|21[012]", "lname": "Lienchiang County", "zipex": "209,212", "sub_keys": "北竿鄉~東引鄉~南竿鄉~莒光鄉", "key": "連江縣", "id": "data/TW/連江縣"}, "TW/屏東縣/泰武鄉": {"lang": "zh-hant", "lname": "Taiwu Township", "id": "data/TW/屏東縣/泰武鄉", "zip": "921", "key": "泰武鄉"}, "TW/屏東縣/屏東市": {"lang": "zh-hant", "lname": "Pingtung City", "id": "data/TW/屏東縣/屏東市", "zip": "900", "key": "屏東市"}, "TW/新竹市": {"lang": "zh-hant", "sub_lnames": "North District~East District~Xiangshan District", "isoid": "HSZ", "zip": "300", "lname": "Hsinchu City", "sub_keys": "北區~東區~香山區", "key": "新竹市", "id": "data/TW/新竹市"}, "TW/台中市/北屯區": {"lang": "zh-hant", "lname": "Beitun District", "id": "data/TW/台中市/北屯區", "zip": "406", "key": "北屯區"}, "TW/高雄市/鳳山區": {"lang": "zh-hant", "lname": "Fengshan District", "id": "data/TW/高雄市/鳳山區", "zip": "830", "key": "鳳山區"}, "TW/台南市/六甲區": {"lang": "zh-hant", "lname": "Liujia District", "id": "data/TW/台南市/六甲區", "zip": "734", "key": "六甲區"}, "TW/金門縣/烈嶼鄉": {"lang": "zh-hant", "lname": "Lieyu Township", "id": "data/TW/金門縣/烈嶼鄉", "zip": "894", "key": "烈嶼鄉"}, "TW/台中市/大里區": {"lang": "zh-hant", "lname": "Dali District", "id": "data/TW/台中市/大里區", "zip": "412", "key": "大里區"}, "TW/台北市/中山區": {"lang": "zh-hant", "lname": "Zhongshan District", "id": "data/TW/台北市/中山區", "zip": "104", "key": "中山區"}, "TW/台北市/大安區": {"lang": "zh-hant", "lname": "Da'an District", "id": "data/TW/台北市/大安區", "zip": "106", "key": "大安區"}, "TW/宜蘭縣/南澳鄉": {"lang": "zh-hant", "lname": "Nan'ao Township", "id": "data/TW/宜蘭縣/南澳鄉", "zip": "272", "key": "南澳鄉"}, "TW/高雄市/永安區": {"lang": "zh-hant", "lname": "Yong'an District", "id": "data/TW/高雄市/永安區", "zip": "828", "key": "永安區"}, "TW/新北市/鶯歌區": {"lang": "zh-hant", "lname": "Yingge District", "id": "data/TW/新北市/鶯歌區", "zip": "239", "key": "鶯歌區"}, "TW/台中市/中區": {"lang": "zh-hant", "lname": "Central District", "id": "data/TW/台中市/中區", "zip": "400", "key": "中區"}, "TW/台南市/龍崎區": {"lang": "zh-hant", "lname": "Longqi District", "id": "data/TW/台南市/龍崎區", "zip": "719", "key": "龍崎區"}, "TW/桃園市/復興區": {"lang": "zh-hant", "lname": "Fuxing District", "id": "data/TW/桃園市/復興區", "zip": "336", "key": "復興區"}, "TW/新竹縣": {"lang": "zh-hant", "sub_lnames": "Wufeng Township~Beipu Township~Jianshi Township~Zhubei City~Zhudong Township~Qionglin Township~Emei Township~Hukou Township~Xinpu Township~Xinfeng Township~Hengshan Township~Guanxi Township~Baoshan Township", "sub_zips": "311~314~313~302~310~307~315~303~305~304~312~306~308", "zip": "30[2-8]|31", "lname": "Hsinchu County", "zipex": "302,315", "sub_keys": "五峰鄉~北埔鄉~尖石鄉~竹北市~竹東鎮~芎林鄉~峨眉鄉~湖口鄉~新埔鎮~新豐鄉~橫山鄉~關西鎮~寶山鄉", "key": "新竹縣", "id": "data/TW/新竹縣", "isoid": "HSQ"}, "TW/花蓮縣/光復鄉": {"lang": "zh-hant", "lname": "Guangfu Township", "id": "data/TW/花蓮縣/光復鄉", "zip": "976", "key": "光復鄉"}, "TW/新北市/金山區": {"lang": "zh-hant", "lname": "Jinshan District", "id": "data/TW/新北市/金山區", "zip": "208", "key": "金山區"}, "TW/花蓮縣/新城鄉": {"lang": "zh-hant", "lname": "Xincheng Township", "id": "data/TW/花蓮縣/新城鄉", "zip": "971", "key": "新城鄉"}, "TW/新北市/三峽區": {"lang": "zh-hant", "lname": "Sanxia District", "id": "data/TW/新北市/三峽區", "zip": "237", "key": "三峽區"}, "TW/高雄市/桃源區": {"lang": "zh-hant", "lname": "Taoyuan District", "id": "data/TW/高雄市/桃源區", "zip": "848", "key": "桃源區"}, "TW/新竹市/香山區": {"lang": "zh-hant", "lname": "Xiangshan District", "id": "data/TW/新竹市/香山區", "key": "香山區"}, "TW/台南市/新市區": {"lang": "zh-hant", "lname": "Xinshi District", "id": "data/TW/台南市/新市區", "zip": "744", "key": "新市區"}, "TW/基隆市/中山區": {"lang": "zh-hant", "lname": "Zhongshan District", "id": "data/TW/基隆市/中山區", "zip": "203", "key": "中山區"}, "TW/台中市/西屯區": {"lang": "zh-hant", "lname": "Xitun District", "id": "data/TW/台中市/西屯區", "zip": "407", "key": "西屯區"}, "TW/苗栗縣/公館鄉": {"lang": "zh-hant", "lname": "Gongguan Township", "id": "data/TW/苗栗縣/公館鄉", "zip": "363", "key": "公館鄉"}, "TW/雲林縣/水林鄉": {"lang": "zh-hant", "lname": "Shuilin Township", "id": "data/TW/雲林縣/水林鄉", "zip": "652", "key": "水林鄉"}, "TW/台中市/南屯區": {"lang": "zh-hant", "lname": "Nantun District", "id": "data/TW/台中市/南屯區", "zip": "408", "key": "南屯區"}, "TW/台南市/楠西區": {"lang": "zh-hant", "lname": "Nanxi District", "id": "data/TW/台南市/楠西區", "zip": "715", "key": "楠西區"}, "TW/新竹縣/寶山鄉": {"lang": "zh-hant", "lname": "Baoshan Township", "id": "data/TW/新竹縣/寶山鄉", "zip": "308", "key": "寶山鄉"}, "TW/彰化縣/芳苑鄉": {"lang": "zh-hant", "lname": "Fangyuan Township", "id": "data/TW/彰化縣/芳苑鄉", "zip": "528", "key": "芳苑鄉"}, "TW/高雄市/茂林區": {"lang": "zh-hant", "lname": "Maolin District", "id": "data/TW/高雄市/茂林區", "zip": "851", "key": "茂林區"}, "TW/屏東縣/新埤鄉": {"lang": "zh-hant", "lname": "Xinpi Township", "id": "data/TW/屏東縣/新埤鄉", "zip": "925", "key": "新埤鄉"}, "TW/彰化縣/埤頭鄉": {"lang": "zh-hant", "lname": "Pitou Township", "id": "data/TW/彰化縣/埤頭鄉", "zip": "523", "key": "埤頭鄉"}, "TW/台北市/萬華區": {"lang": "zh-hant", "lname": "Wanhua District", "id": "data/TW/台北市/萬華區", "zip": "108", "key": "萬華區"}, "TW/雲林縣/崙背鄉": {"lang": "zh-hant", "lname": "Lunbei Township", "id": "data/TW/雲林縣/崙背鄉", "zip": "637", "key": "崙背鄉"}, "TW/台南市/南化區": {"lang": "zh-hant", "lname": "Nanhua District", "id": "data/TW/台南市/南化區", "zip": "716", "key": "南化區"}, "TW/台中市/清水區": {"lang": "zh-hant", "lname": "Qingshui District", "id": "data/TW/台中市/清水區", "zip": "436", "key": "清水區"}, "TW/雲林縣/二崙鄉": {"lang": "zh-hant", "lname": "Erlun Township", "id": "data/TW/雲林縣/二崙鄉", "zip": "649", "key": "二崙鄉"}, "TW/桃園市/龜山區": {"lang": "zh-hant", "lname": "Guishan District", "id": "data/TW/桃園市/龜山區", "zip": "333", "key": "龜山區"}, "TW/宜蘭縣/冬山鄉": {"lang": "zh-hant", "lname": "Dongshan Township", "id": "data/TW/宜蘭縣/冬山鄉", "zip": "269", "key": "冬山鄉"}, "TW/桃園市/楊梅區": {"lang": "zh-hant", "lname": "Yangmei District", "id": "data/TW/桃園市/楊梅區", "zip": "326", "key": "楊梅區"}, "TW/高雄市/湖內區": {"lang": "zh-hant", "lname": "Hunei District", "id": "data/TW/高雄市/湖內區", "zip": "829", "key": "湖內區"}, "TW/花蓮縣": {"lang": "zh-hant", "sub_lnames": "Yuli Township~Guangfu Township~Ji'an Township~Xiulin Township~Zhuoxi Township~Hualien City~Fuli Township~Xincheng Township~Ruisui Township~Wanrong Township~Shoufeng Township~Fenglin Township~Fengbin Township", "sub_zips": "981~976~973~972~982~970~983~971~978~979~974~975~977", "zip": "9[78]", "lname": "Hualien County", "zipex": "970,983", "sub_keys": "玉里鎮~光復鄉~吉安鄉~秀林鄉~卓溪鄉~花蓮市~富里鄉~新城鄉~瑞穗鄉~萬榮鄉~壽豐鄉~鳳林鎮~豐濱鄉", "key": "花蓮縣", "id": "data/TW/花蓮縣", "isoid": "HUA"}, "TW/南投縣/竹山鎮": {"lang": "zh-hant", "lname": "Zhushan Township", "id": "data/TW/南投縣/竹山鎮", "zip": "557", "key": "竹山鎮"}, "TW/澎湖縣/七美鄉": {"lang": "zh-hant", "lname": "Qimei Township", "id": "data/TW/澎湖縣/七美鄉", "zip": "883", "key": "七美鄉"}, "TW/宜蘭縣/大同鄉": {"lang": "zh-hant", "lname": "Datong Township", "id": "data/TW/宜蘭縣/大同鄉", "zip": "267", "key": "大同鄉"}, "TW/台北市/南港區": {"lang": "zh-hant", "lname": "Nangang District", "id": "data/TW/台北市/南港區", "zip": "115", "key": "南港區"}, "TW/雲林縣/虎尾鎮": {"lang": "zh-hant", "lname": "Huwei Township", "id": "data/TW/雲林縣/虎尾鎮", "zip": "632", "key": "虎尾鎮"}, "TW/屏東縣/來義鄉": {"lang": "zh-hant", "lname": "Laiyi Township", "id": "data/TW/屏東縣/來義鄉", "zip": "922", "key": "來義鄉"}, "TW/苗栗縣/頭份市": {"lang": "zh-hant", "lname": "Toufen City", "id": "data/TW/苗栗縣/頭份市", "zip": "351", "key": "頭份市"}, "TW/新北市/三芝區": {"lang": "zh-hant", "lname": "Sanzhi District", "id": "data/TW/新北市/三芝區", "zip": "252", "key": "三芝區"}, "TW/嘉義縣/東石鄉": {"lang": "zh-hant", "lname": "Dongshi Township", "id": "data/TW/嘉義縣/東石鄉", "zip": "614", "key": "東石鄉"}, "TW/新北市/八里區": {"lang": "zh-hant", "lname": "Bali District", "id": "data/TW/新北市/八里區", "zip": "249", "key": "八里區"}, "TW/彰化縣/田尾鄉": {"lang": "zh-hant", "lname": "Tianwei Township", "id": "data/TW/彰化縣/田尾鄉", "zip": "522", "key": "田尾鄉"}, "TW/屏東縣": {"lang": "zh-hant", "sub_lnames": "Jiuru Township~Sandimen Township~Neipu Township~Zhutian Township~Mudan Township~Checheng Township~Ligang Township~Jiadong Township~Laiyi Township~Donggang Township~Fangshan Township~Fangliao Township~Linbian Township~Changzhi Township~Nanzhou Township~Pingtung City~Hengchun Township~Chunri Township~Kanding Township~Taiwu Township~Liuqiu Township~Gaoshu Township~Xinpi Township~Xinyuan Township~Shizi Township~Wandan Township~Wanluan Township~Manzhou Township~Majia Township~Chaozhou Township~Wutai Township~Linluo Township~Yanpu Township", "sub_zips": "904~901~912~911~945~944~905~931~922~928~941~940~927~908~926~900~946~942~924~921~929~906~925~932~943~913~923~947~903~920~902~909~907", "zip": "9[0-4]", "lname": "Pingtung County", "zipex": "900,947", "sub_keys": "九如鄉~三地門鄉~內埔鄉~竹田鄉~牡丹鄉~車城鄉~里港鄉~佳冬鄉~來義鄉~東港鎮~枋山鄉~枋寮鄉~林邊鄉~長治鄉~南州鄉~屏東市~恆春鎮~春日鄉~崁頂鄉~泰武鄉~琉球鄉~高樹鄉~新埤鄉~新園鄉~獅子鄉~萬丹鄉~萬巒鄉~滿洲鄉~瑪家鄉~潮州鎮~霧台鄉~麟洛鄉~鹽埔鄉", "key": "屏東縣", "id": "data/TW/屏東縣", "isoid": "PIF"}, "TW/雲林縣/土庫鎮": {"lang": "zh-hant", "lname": "Tuku Township", "id": "data/TW/雲林縣/土庫鎮", "zip": "633", "key": "土庫鎮"}, "TW/台南市/大內區": {"lang": "zh-hant", "lname": "Danei District", "id": "data/TW/台南市/大內區", "zip": "742", "key": "大內區"}, "TW/桃園市/中壢區": {"lang": "zh-hant", "lname": "Zhongli District", "id": "data/TW/桃園市/中壢區", "zip": "320", "key": "中壢區"}, "TW/台中市/龍井區": {"lang": "zh-hant", "lname": "Longjing District", "id": "data/TW/台中市/龍井區", "zip": "434", "key": "龍井區"}, "TW/台中市/大雅區": {"lang": "zh-hant", "lname": "Daya District", "id": "data/TW/台中市/大雅區", "zip": "428", "key": "大雅區"}, "TW/彰化縣/員林市": {"lang": "zh-hant", "lname": "Yuanlin City", "id": "data/TW/彰化縣/員林市", "zip": "510", "key": "員林市"}, "TW/苗栗縣/卓蘭鎮": {"lang": "zh-hant", "lname": "Zhuolan Township", "id": "data/TW/苗栗縣/卓蘭鎮", "zip": "369", "key": "卓蘭鎮"}, "TW/屏東縣/萬巒鄉": {"lang": "zh-hant", "lname": "Wanluan Township", "id": "data/TW/屏東縣/萬巒鄉", "zip": "923", "key": "萬巒鄉"}, "TW/台東縣/長濱鄉": {"lang": "zh-hant", "lname": "Changbin Township", "id": "data/TW/台東縣/長濱鄉", "zip": "962", "key": "長濱鄉"}, "TW/台北市/中正區": {"lang": "zh-hant", "lname": "Zhongzheng District", "id": "data/TW/台北市/中正區", "zip": "100", "key": "中正區"}, "TW/台東縣/延平鄉": {"lang": "zh-hant", "lname": "Yanping Township", "id": "data/TW/台東縣/延平鄉", "zip": "953", "key": "延平鄉"}, "TW/金門縣/烏坵鄉": {"lang": "zh-hant", "lname": "Wuqiu Township", "id": "data/TW/金門縣/烏坵鄉", "zip": "896", "key": "烏坵鄉"}, "TW/新北市/泰山區": {"lang": "zh-hant", "lname": "Taishan District", "id": "data/TW/新北市/泰山區", "zip": "243", "key": "泰山區"}, "TW/彰化縣/芬園鄉": {"lang": "zh-hant", "lname": "Fenyuan Township", "id": "data/TW/彰化縣/芬園鄉", "zip": "502", "key": "芬園鄉"}, "TW/宜蘭縣/蘇澳鎮": {"lang": "zh-hant", "lname": "Su'ao Township", "id": "data/TW/宜蘭縣/蘇澳鎮", "zip": "270", "key": "蘇澳鎮"}, "TW/台南市/東山區": {"lang": "zh-hant", "lname": "Dongshan District", "id": "data/TW/台南市/東山區", "zip": "733", "key": "東山區"}, "TW/苗栗縣/泰安鄉": {"lang": "zh-hant", "lname": "Tai'an Township", "id": "data/TW/苗栗縣/泰安鄉", "zip": "365", "key": "泰安鄉"}, "TW/金門縣": {"lang": "zh-hant", "sub_lnames": "Jinsha Township~Jincheng Township~Jinhu Township~Jinning Township~Lieyu Township~Wuqiu Township", "sub_zips": "890~893~891~892~894~896", "zip": "89", "lname": "Kinmen County", "zipex": "890,896", "sub_keys": "金沙鎮~金城鎮~金湖鎮~金寧鄉~烈嶼鄉~烏坵鄉", "key": "金門縣", "id": "data/TW/金門縣"}, "TW/基隆市/七堵區": {"lang": "zh-hant", "lname": "Qidu District", "id": "data/TW/基隆市/七堵區", "zip": "206", "key": "七堵區"}, "TW/彰化縣/溪州鄉": {"lang": "zh-hant", "lname": "Xizhou Township", "id": "data/TW/彰化縣/溪州鄉", "zip": "524", "key": "溪州鄉"}, "TW/台南市/新化區": {"lang": "zh-hant", "lname": "Xinhua District", "id": "data/TW/台南市/新化區", "zip": "712", "key": "新化區"}, "TW/彰化縣/秀水鄉": {"lang": "zh-hant", "lname": "Xiushui Township", "id": "data/TW/彰化縣/秀水鄉", "zip": "504", "key": "秀水鄉"}, "TW/桃園市/蘆竹區": {"lang": "zh-hant", "lname": "Luzhu District", "id": "data/TW/桃園市/蘆竹區", "zip": "338", "key": "蘆竹區"}, "TW/新竹市/北區": {"lang": "zh-hant", "lname": "North District", "id": "data/TW/新竹市/北區", "key": "北區"}, "TW/高雄市/大社區": {"lang": "zh-hant", "lname": "Dashe District", "id": "data/TW/高雄市/大社區", "zip": "815", "key": "大社區"}, "TW/連江縣/南竿鄉": {"lang": "zh-hant", "lname": "Nangan Township", "id": "data/TW/連江縣/南竿鄉", "zip": "209", "key": "南竿鄉"}, "TW/台中市/外埔區": {"lang": "zh-hant", "lname": "Waipu District", "id": "data/TW/台中市/外埔區", "zip": "438", "key": "外埔區"}, "TW/台北市/信義區": {"lang": "zh-hant", "lname": "Xinyi District", "id": "data/TW/台北市/信義區", "zip": "110", "key": "信義區"}, "TW/屏東縣/恆春鎮": {"lang": "zh-hant", "lname": "Hengchun Township", "id": "data/TW/屏東縣/恆春鎮", "zip": "946", "key": "恆春鎮"}, "TW/彰化縣/福興鄉": {"lang": "zh-hant", "lname": "Fuxing Township", "id": "data/TW/彰化縣/福興鄉", "zip": "506", "key": "福興鄉"}, "TW/台東縣": {"lang": "zh-hant", "sub_lnames": "Dawu Township~Taimali Township~Taitung City~Chenggong Township~Chishang Township~Beinan Township~Yanping Township~Donghe Township~Jinfeng Township~Changbin Township~Haiduan Township~Luye Township~Daren Township~Lüdao Township~Guanshan Township~Lanyu Township", "sub_zips": "965~963~950~961~958~954~953~959~964~962~957~955~966~951~956~952", "zip": "9[56]", "lname": "Taitung County", "zipex": "950,966", "sub_keys": "大武鄉~太麻里鄉~台東市~成功鎮~池上鄉~卑南鄉~延平鄉~東河鄉~金峰鄉~長濱鄉~海端鄉~鹿野鄉~達仁鄉~綠島鄉~關山鎮~蘭嶼鄉", "key": "台東縣", "id": "data/TW/台東縣", "isoid": "TTT"}, "TW/台中市/大肚區": {"lang": "zh-hant", "lname": "Dadu District", "id": "data/TW/台中市/大肚區", "zip": "432", "key": "大肚區"}, "TW/新竹縣/關西鎮": {"lang": "zh-hant", "lname": "Guanxi Township", "id": "data/TW/新竹縣/關西鎮", "zip": "306", "key": "關西鎮"}, "TW/嘉義縣/梅山鄉": {"lang": "zh-hant", "lname": "Meishan Township", "id": "data/TW/嘉義縣/梅山鄉", "zip": "603", "key": "梅山鄉"}, "TW/雲林縣/北港鎮": {"lang": "zh-hant", "lname": "Beigang Township", "id": "data/TW/雲林縣/北港鎮", "zip": "651", "key": "北港鎮"}, "TW/台東縣/綠島鄉": {"lang": "zh-hant", "lname": "Lüdao Township", "id": "data/TW/台東縣/綠島鄉", "zip": "951", "key": "綠島鄉"}, "TW/宜蘭縣/羅東鎮": {"lang": "zh-hant", "lname": "Luodong Township", "id": "data/TW/宜蘭縣/羅東鎮", "zip": "265", "key": "羅東鎮"}, "TW/金門縣/金寧鄉": {"lang": "zh-hant", "lname": "Jinning Township", "id": "data/TW/金門縣/金寧鄉", "zip": "892", "key": "金寧鄉"}, "TW/嘉義縣/朴子市": {"lang": "zh-hant", "lname": "Puzi City", "id": "data/TW/嘉義縣/朴子市", "zip": "613", "key": "朴子市"}, "TW/彰化縣/和美鎮": {"lang": "zh-hant", "lname": "Hemei Township", "id": "data/TW/彰化縣/和美鎮", "zip": "508", "key": "和美鎮"}, "TW/屏東縣/新園鄉": {"lang": "zh-hant", "lname": "Xinyuan Township", "id": "data/TW/屏東縣/新園鄉", "zip": "932", "key": "新園鄉"}, "TW/台南市/中西區": {"lang": "zh-hant", "lname": "West Central District", "id": "data/TW/台南市/中西區", "zip": "700", "key": "中西區"}, "TW/桃園市/新屋區": {"lang": "zh-hant", "lname": "Xinwu District", "id": "data/TW/桃園市/新屋區", "zip": "327", "key": "新屋區"}, "TW/南投縣/集集鎮": {"lang": "zh-hant", "lname": "Jiji Township", "id": "data/TW/南投縣/集集鎮", "zip": "552", "key": "集集鎮"}, "TW/苗栗縣/苑裡鎮": {"lang": "zh-hant", "lname": "Yuanli Township", "id": "data/TW/苗栗縣/苑裡鎮", "zip": "358", "key": "苑裡鎮"}, "TW/嘉義縣": {"lang": "zh-hant", "sub_lnames": "Dalin Township~Dapu Township~Zhongpu Township~Liujiao Township~Taibao City~Shuishang Township~Budai Township~Minxiong Township~Puzi City~Zhuqi Township~Dongshi Township~Alishan Township~Meishan Township~Lucao Township~Fanlu Township~Xingang Township~Xikou Township~Yizhu Township", "sub_zips": "622~607~606~615~612~608~625~621~613~604~614~605~603~611~602~616~623~624", "zip": "60[1-9]|6[12]", "lname": "Chiayi County", "zipex": "602,625", "sub_keys": "大林鎮~大埔鄉~中埔鄉~六腳鄉~太保市~水上鄉~布袋鎮~民雄鄉~朴子市~竹崎鄉~東石鄉~阿里山鄉~梅山鄉~鹿草鄉~番路鄉~新港鄉~溪口鄉~義竹鄉", "key": "嘉義縣", "id": "data/TW/嘉義縣", "isoid": "CYQ"}, "TW/彰化縣/竹塘鄉": {"lang": "zh-hant", "lname": "Zhutang Township", "id": "data/TW/彰化縣/竹塘鄉", "zip": "525", "key": "竹塘鄉"}, "TW/苗栗縣/頭屋鄉": {"lang": "zh-hant", "lname": "Touwu Township", "id": "data/TW/苗栗縣/頭屋鄉", "zip": "362", "key": "頭屋鄉"}, "TW/南投縣": {"lang": "zh-hant", "sub_lnames": "Zhongliao Township~Ren'ai Township~Shuili Township~Mingjian Township~Zhushan Township~Xinyi Township~Nantou City~Puli Township~Caotun Township~Guoxing Township~Yuchi Township~Lugu Township~Jiji Township", "sub_zips": "541~546~553~551~557~556~540~545~542~544~555~558~552", "zip": "5[45]", "lname": "Nantou County", "zipex": "540,558", "sub_keys": "中寮鄉~仁愛鄉~水里鄉~名間鄉~竹山鎮~信義鄉~南投市~埔里鎮~草屯鎮~國姓鄉~魚池鄉~鹿谷鄉~集集鎮", "key": "南投縣", "id": "data/TW/南投縣", "isoid": "NAN"}, "TW": {"lang": "zh-hant", "sub_zipexs": "400,408:411,439~100,119~950,966~700,745~260,272~970,983~890,896~540,558~900,947~350,369~320,338~800,815:817,852~200,206~209,212~630,655~207,208:220,253~~302,315~~602,625~500,530~880,885", "zipex": "104,106,10603,40867", "name": "TAIWAN", "zip": "\\d{3}(\\d{2})?", "sub_mores": "true~true~true~true~true~true~true~true~true~true~true~true~true~true~true~true~true~true~true~true~true~true", "fmt": "%Z%n%S%C%n%A%n%O%n%N", "state_name_type": "county", "languages": "zh-hant", "lfmt": "%N%n%O%n%A%n%C, %S %Z", "sub_lnames": "Taichung City~Taipei City~Taitung County~Tainan City~Yilan County~Hualien County~Kinmen County~Nantou County~Pingtung County~Miaoli County~Taoyuan City~Kaohsiung City~Keelung City~Lienchiang County~Yunlin County~New Taipei City~Hsinchu City~Hsinchu County~Chiayi City~Chiayi County~Changhua County~Penghu County", "sub_keys": "台中市~台北市~台東縣~台南市~宜蘭縣~花蓮縣~金門縣~南投縣~屏東縣~苗栗縣~桃園市~高雄市~基隆市~連江縣~雲林縣~新北市~新竹市~新竹縣~嘉義市~嘉義縣~彰化縣~澎湖縣", "key": "TW", "sub_isoids": "TXG~TPE~TTT~TNN~ILA~HUA~~NAN~PIF~MIA~TAO~KHH~KEE~~YUN~TPQ~HSZ~HSQ~CYI~CYQ~CHA~PEN", "posturl": "http://www.post.gov.tw/post/internet/f_searchzone/index.jsp?ID=190102", "id": "data/TW", "require": "ACSZ", "sub_zips": "4[0-3]~1[01]~9[56]~7[0-4]~2[67]~9[78]~89~5[45]~9[0-4]~3[56]~3[23]~8[02-5]|81[1-579]~20[0-6]~209|21[012]~6[3-5]~20[78]|2[2345]~300~30[2-8]|31~600~60[1-9]|6[12]~5[0123]~88"}, "TW/連江縣/北竿鄉": {"lang": "zh-hant", "lname": "Beigan Township", "id": "data/TW/連江縣/北竿鄉", "zip": "210", "key": "北竿鄉"}, "TW/屏東縣/萬丹鄉": {"lang": "zh-hant", "lname": "Wandan Township", "id": "data/TW/屏東縣/萬丹鄉", "zip": "913", "key": "萬丹鄉"}, "TW/台南市/佳里區": {"lang": "zh-hant", "lname": "Jiali District", "id": "data/TW/台南市/佳里區", "zip": "722", "key": "佳里區"}, "TW/台南市/歸仁區": {"lang": "zh-hant", "lname": "Guiren District", "id": "data/TW/台南市/歸仁區", "zip": "711", "key": "歸仁區"}, "TW/南投縣/鹿谷鄉": {"lang": "zh-hant", "lname": "Lugu Township", "id": "data/TW/南投縣/鹿谷鄉", "zip": "558", "key": "鹿谷鄉"}, "TW/屏東縣/霧台鄉": {"lang": "zh-hant", "lname": "Wutai Township", "id": "data/TW/屏東縣/霧台鄉", "zip": "902", "key": "霧台鄉"}, "TW/嘉義縣/番路鄉": {"lang": "zh-hant", "lname": "Fanlu Township", "id": "data/TW/嘉義縣/番路鄉", "zip": "602", "key": "番路鄉"}, "TW/屏東縣/車城鄉": {"lang": "zh-hant", "lname": "Checheng Township", "id": "data/TW/屏東縣/車城鄉", "zip": "944", "key": "車城鄉"}, "TW/新北市/汐止區": {"lang": "zh-hant", "lname": "Xizhi District", "id": "data/TW/新北市/汐止區", "zip": "221", "key": "汐止區"}, "TW/新北市/樹林區": {"lang": "zh-hant", "lname": "Shulin District", "id": "data/TW/新北市/樹林區", "zip": "238", "key": "樹林區"}, "TW/彰化縣/北斗鎮": {"lang": "zh-hant", "lname": "Beidou Township", "id": "data/TW/彰化縣/北斗鎮", "zip": "521", "key": "北斗鎮"}, "TW/台東縣/池上鄉": {"lang": "zh-hant", "lname": "Chishang Township", "id": "data/TW/台東縣/池上鄉", "zip": "958", "key": "池上鄉"}, "TW/台南市/南區": {"lang": "zh-hant", "lname": "South District", "id": "data/TW/台南市/南區", "zip": "702", "key": "南區"}, "TW/彰化縣/線西鄉": {"lang": "zh-hant", "lname": "Xianxi Township", "id": "data/TW/彰化縣/線西鄉", "zip": "507", "key": "線西鄉"}, "TW/台南市/關廟區": {"lang": "zh-hant", "lname": "Guanmiao District", "id": "data/TW/台南市/關廟區", "zip": "718", "key": "關廟區"}, "TW/高雄市/那瑪夏區": {"lang": "zh-hant", "lname": "Namaxia District", "id": "data/TW/高雄市/那瑪夏區", "zip": "849", "key": "那瑪夏區"}, "TW/屏東縣/佳冬鄉": {"lang": "zh-hant", "lname": "Jiadong Township", "id": "data/TW/屏東縣/佳冬鄉", "zip": "931", "key": "佳冬鄉"}, "TW/南投縣/草屯鎮": {"lang": "zh-hant", "lname": "Caotun Township", "id": "data/TW/南投縣/草屯鎮", "zip": "542", "key": "草屯鎮"}, "TW/台南市/安南區": {"lang": "zh-hant", "lname": "Annan District", "id": "data/TW/台南市/安南區", "zip": "709", "key": "安南區"}, "TW/新竹市/東區": {"lang": "zh-hant", "lname": "East District", "id": "data/TW/新竹市/東區", "key": "東區"}, "TW/新竹縣/峨眉鄉": {"lang": "zh-hant", "lname": "Emei Township", "id": "data/TW/新竹縣/峨眉鄉", "zip": "315", "key": "峨眉鄉"}, "TW/彰化縣/大村鄉": {"lang": "zh-hant", "lname": "Dacun Township", "id": "data/TW/彰化縣/大村鄉", "zip": "515", "key": "大村鄉"}, "TW/苗栗縣/南庄鄉": {"lang": "zh-hant", "lname": "Nanzhuang Township", "id": "data/TW/苗栗縣/南庄鄉", "zip": "353", "key": "南庄鄉"}, "TW/高雄市/橋頭區": {"lang": "zh-hant", "lname": "Qiaotou District", "id": "data/TW/高雄市/橋頭區", "zip": "825", "key": "橋頭區"}, "TW/澎湖縣": {"lang": "zh-hant", "sub_lnames": "Qimei Township~Baisha Township~Xiyu Township~Magong City~Wang'an Township~Huxi Township", "sub_zips": "883~884~881~880~882~885", "zip": "88", "lname": "Penghu County", "zipex": "880,885", "sub_keys": "七美鄉~白沙鄉~西嶼鄉~馬公市~望安鄉~湖西鄉", "key": "澎湖縣", "id": "data/TW/澎湖縣", "isoid": "PEN"}, "TW/台南市/東區": {"lang": "zh-hant", "lname": "East District", "id": "data/TW/台南市/東區", "zip": "701", "key": "東區"}, "TW/花蓮縣/秀林鄉": {"lang": "zh-hant", "lname": "Xiulin Township", "id": "data/TW/花蓮縣/秀林鄉", "zip": "972", "key": "秀林鄉"}, "TW/屏東縣/林邊鄉": {"lang": "zh-hant", "lname": "Linbian Township", "id": "data/TW/屏東縣/林邊鄉", "zip": "927", "key": "林邊鄉"}, "TW/南投縣/水里鄉": {"lang": "zh-hant", "lname": "Shuili Township", "id": "data/TW/南投縣/水里鄉", "zip": "553", "key": "水里鄉"}, "TW/台中市/石岡區": {"lang": "zh-hant", "lname": "Shigang District", "id": "data/TW/台中市/石岡區", "zip": "422", "key": "石岡區"}, "TW/彰化縣/大城鄉": {"lang": "zh-hant", "lname": "Dacheng Township", "id": "data/TW/彰化縣/大城鄉", "zip": "527", "key": "大城鄉"}, "TW/屏東縣/春日鄉": {"lang": "zh-hant", "lname": "Chunri Township", "id": "data/TW/屏東縣/春日鄉", "zip": "942", "key": "春日鄉"}, "TW/高雄市/路竹區": {"lang": "zh-hant", "lname": "Luzhu District", "id": "data/TW/高雄市/路竹區", "zip": "821", "key": "路竹區"}, "TW/台中市/后里區": {"lang": "zh-hant", "lname": "Houli District", "id": "data/TW/台中市/后里區", "zip": "421", "key": "后里區"}, "TW/高雄市/林園區": {"lang": "zh-hant", "lname": "Linyuan District", "id": "data/TW/高雄市/林園區", "zip": "832", "key": "林園區"}}